{
"RECORDS":[
{
"code":"14",
"year":"2014",
"landUse":"工业用地",
"value":550
},
{
"code":"23",
"year":"2014",
"landUse":"其他普通商品住房用地",
"value":487
},
{
"code":"51",
"year":"2014",
"landUse":"廉租住房用地",
"value":11
},
{
"code":"21",
"year":"2014",
"landUse":"其他商服用地",
"value":463
},
{
"code":"35",
"year":"2014",
"landUse":"高档住宅用地",
"value":1
},
{
"code":"15",
"year":"2014",
"landUse":"其他普通商品住房用地",
"value":577
},
{
"code":"43",
"year":"2014",
"landUse":"仓储用地",
"value":57
},
{
"code":"13",
"year":"2014",
"landUse":"高档住宅用地",
"value":5
},
{
"code":"61",
"year":"2014",
"landUse":"其他商服用地",
"value":271
},
{
"code":"34",
"year":"2014",
"landUse":"仓储用地",
"value":55
},
{
"code":"13",
"year":"2014",
"landUse":"采矿用地",
"value":3
},
{
"code":"61",
"year":"2014",
"landUse":"仓储用地",
"value":63
},
{
"code":"32",
"year":"2014",
"landUse":"中低价位、中小套型普通商品住房用地",
"value":901
},
{
"code":"41",
"year":"2014",
"landUse":"廉租住房用地",
"value":10
},
{
"code":"41",
"year":"2014",
"landUse":"工业用地",
"value":1379
},
{
"code":"45",
"year":"2014",
"landUse":"其他商服用地",
"value":126
},
{
"code":"43",
"year":"2014",
"landUse":"中低价位、中小套型普通商品住房用地",
"value":360
},
{
"code":"43",
"year":"2014",
"landUse":"工业用地",
"value":852
},
{
"code":"43",
"year":"2014",
"landUse":"其他普通商品住房用地",
"value":4395
},
{
"code":"51",
"year":"2014",
"landUse":"其他普通商品住房用地",
"value":2211
},
{
"code":"63",
"year":"2014",
"landUse":"中低价位、中小套型普通商品住房用地",
"value":19
},
{
"code":"64",
"year":"2014",
"landUse":"中低价位、中小套型普通商品住房用地",
"value":41
},
{
"code":"62",
"year":"2014",
"landUse":"商务金融用地",
"value":32
},
{
"code":"52",
"year":"2014",
"landUse":"仓储用地",
"value":48
},
{
"code":"22",
"year":"2014",
"landUse":"仓储用地",
"value":121
},
{
"code":"43",
"year":"2014",
"landUse":"住宿餐饮用地",
"value":21
},
{
"code":"62",
"year":"2014",
"landUse":"采矿用地",
"value":130
},
{
"code":"15",
"year":"2014",
"landUse":"经济适用住房用地",
"value":8
},
{
"code":"33",
"year":"2014",
"landUse":"仓储用地",
"value":94
},
{
"code":"32",
"year":"2014",
"landUse":"经济适用住房用地",
"value":85
},
{
"code":"41",
"year":"2014",
"landUse":"仓储用地",
"value":102
},
{
"code":"15",
"year":"2014",
"landUse":"住宿餐饮用地",
"value":87
},
{
"code":"61",
"year":"2014",
"landUse":"商务金融用地",
"value":29
},
{
"code":"63",
"year":"2014",
"landUse":"经济适用住房用地",
"value":5
},
{
"code":"65",
"year":"2014",
"landUse":"住宿餐饮用地",
"value":45
},
{
"code":"50",
"year":"2014",
"landUse":"仓储用地",
"value":13
},
{
"code":"14",
"year":"2014",
"landUse":"中低价位、中小套型普通商品住房用地",
"value":132
},
{
"code":"23",
"year":"2014",
"landUse":"采矿用地",
"value":1
},
{
"code":"37",
"year":"2014",
"landUse":"住宿餐饮用地",
"value":77
},
{
"code":"62",
"year":"2014",
"landUse":"住宿餐饮用地",
"value":36
},
{
"code":"12",
"year":"2014",
"landUse":"中低价位、中小套型普通商品住房用地",
"value":3
},
{
"code":"36",
"year":"2014",
"landUse":"中低价位、中小套型普通商品住房用地",
"value":200
},
{
"code":"21",
"year":"2014",
"landUse":"廉租住房用地",
"value":2
},
{
"code":"44",
"year":"2014",
"landUse":"其他普通商品住房用地",
"value":3623
},
{
"code":"43",
"year":"2014",
"landUse":"其他商服用地",
"value":677
},
{
"code":"53",
"year":"2014",
"landUse":"采矿用地",
"value":3
},
{
"code":"61",
"year":"2014",
"landUse":"其他普通商品住房用地",
"value":541
},
{
"code":"23",
"year":"2014",
"landUse":"中低价位、中小套型普通商品住房用地",
"value":120
},
{
"code":"46",
"year":"2014",
"landUse":"高档住宅用地",
"value":12
},
{
"code":"61",
"year":"2014",
"landUse":"采矿用地",
"value":37
},
{
"code":"32",
"year":"2014",
"landUse":"工业用地",
"value":3605
},
{
"code":"64",
"year":"2014",
"landUse":"经济适用住房用地",
"value":1
},
{
"code":"46",
"year":"2014",
"landUse":"其他普通商品住房用地",
"value":72
},
{
"code":"35",
"year":"2014",
"landUse":"工业用地",
"value":1070
},
{
"code":"43",
"year":"2014",
"landUse":"采矿用地",
"value":12
},
{
"code":"65",
"year":"2014",
"landUse":"高档住宅用地",
"value":10
},
{
"code":"33",
"year":"2014",
"landUse":"工业用地",
"value":2391
},
{
"code":"41",
"year":"2014",
"landUse":"其他普通商品住房用地",
"value":1231
},
{
"code":"64",
"year":"2014",
"landUse":"商务金融用地",
"value":9
},
{
"code":"53",
"year":"2014",
"landUse":"高档住宅用地",
"value":3
},
{
"code":"21",
"year":"2014",
"landUse":"中低价位、中小套型普通商品住房用地",
"value":314
},
{
"code":"51",
"year":"2014",
"landUse":"采矿用地",
"value":28
},
{
"code":"61",
"year":"2014",
"landUse":"经济适用住房用地",
"value":30
},
{
"code":"11",
"year":"2014",
"landUse":"中低价位、中小套型普通商品住房用地",
"value":6
},
{
"code":"32",
"year":"2014",
"landUse":"仓储用地",
"value":164
},
{
"code":"36",
"year":"2014",
"landUse":"采矿用地",
"value":2
},
{
"code":"23",
"year":"2014",
"landUse":"仓储用地",
"value":61
},
{
"code":"32",
"year":"2014",
"landUse":"商务金融用地",
"value":135
},
{
"code":"61",
"year":"2014",
"landUse":"中低价位、中小套型普通商品住房用地",
"value":107
},
{
"code":"46",
"year":"2014",
"landUse":"住宿餐饮用地",
"value":34
},
{
"code":"22",
"year":"2014",
"landUse":"中低价位、中小套型普通商品住房用地",
"value":166
},
{
"code":"53",
"year":"2014",
"landUse":"经济适用住房用地",
"value":83
},
{
"code":"45",
"year":"2014",
"landUse":"住宿餐饮用地",
"value":21
},
{
"code":"32",
"year":"2014",
"landUse":"住宿餐饮用地",
"value":36
},
{
"code":"50",
"year":"2014",
"landUse":"经济适用住房用地",
"value":46
},
{
"code":"31",
"year":"2014",
"landUse":"中低价位、中小套型普通商品住房用地",
"value":24
},
{
"code":"34",
"year":"2014",
"landUse":"中低价位、中小套型普通商品住房用地",
"value":202
},
{
"code":"37",
"year":"2014",
"landUse":"商务金融用地",
"value":378
},
{
"code":"63",
"year":"2014",
"landUse":"公共租赁住房用地",
"value":1
},
{
"code":"36",
"year":"2014",
"landUse":"商务金融用地",
"value":48
},
{
"code":"46",
"year":"2014",
"landUse":"经济适用住房用地",
"value":2
},
{
"code":"36",
"year":"2014",
"landUse":"其他普通商品住房用地",
"value":900
},
{
"code":"53",
"year":"2014",
"landUse":"其他商服用地",
"value":641
},
{
"code":"63",
"year":"2014",
"landUse":"高档住宅用地",
"value":3
},
{
"code":"33",
"year":"2014",
"landUse":"经济适用住房用地",
"value":406
},
{
"code":"23",
"year":"2014",
"landUse":"商务金融用地",
"value":41
},
{
"code":"50",
"year":"2014",
"landUse":"采矿用地",
"value":7
},
{
"code":"44",
"year":"2014",
"landUse":"仓储用地",
"value":44
},
{
"code":"31",
"year":"2014",
"landUse":"其他普通商品住房用地",
"value":48
},
{
"code":"11",
"year":"2014",
"landUse":"公共租赁住房用地",
"value":1
},
{
"code":"62",
"year":"2014",
"landUse":"仓储用地",
"value":26
},
{
"code":"64",
"year":"2014",
"landUse":"其他商服用地",
"value":109
},
{
"code":"51",
"year":"2014",
"landUse":"中低价位、中小套型普通商品住房用地",
"value":789
},
{
"code":"41",
"year":"2014",
"landUse":"住宿餐饮用地",
"value":39
},
{
"code":"13",
"year":"2014",
"landUse":"商务金融用地",
"value":148
},
{
"code":"15",
"year":"2014",
"landUse":"其他商服用地",
"value":798
},
{
"code":"65",
"year":"2014",
"landUse":"公共租赁住房用地",
"value":6
},
{
"code":"21",
"year":"2014",
"landUse":"商务金融用地",
"value":57
},
{
"code":"31",
"year":"2014",
"landUse":"住宿餐饮用地",
"value":4
},
{
"code":"42",
"year":"2014",
"landUse":"仓储用地",
"value":87
},
{
"code":"44",
"year":"2014",
"landUse":"公共租赁住房用地",
"value":8
},
{
"code":"64",
"year":"2014",
"landUse":"其他普通商品住房用地",
"value":87
},
{
"code":"51",
"year":"2014",
"landUse":"公共租赁住房用地",
"value":10
},
{
"code":"53",
"year":"2014",
"landUse":"商务金融用地",
"value":75
},
{
"code":"11",
"year":"2014",
"landUse":"仓储用地",
"value":10
},
{
"code":"43",
"year":"2014",
"landUse":"经济适用住房用地",
"value":41
},
{
"code":"12",
"year":"2014",
"landUse":"商务金融用地",
"value":37
},
{
"code":"11",
"year":"2014",
"landUse":"工业用地",
"value":49
},
{
"code":"51",
"year":"2014",
"landUse":"经济适用住房用地",
"value":54
},
{
"code":"37",
"year":"2014",
"landUse":"采矿用地",
"value":5
},
{
"code":"37",
"year":"2014",
"landUse":"公共租赁住房用地",
"value":28
},
{
"code":"64",
"year":"2014",
"landUse":"仓储用地",
"value":23
},
{
"code":"42",
"year":"2014",
"landUse":"公共租赁住房用地",
"value":9
},
{
"code":"12",
"year":"2014",
"landUse":"其他普通商品住房用地",
"value":133
},
{
"code":"63",
"year":"2014",
"landUse":"住宿餐饮用地",
"value":35
},
{
"code":"52",
"year":"2014",
"landUse":"其他普通商品住房用地",
"value":668
},
{
"code":"13",
"year":"2014",
"landUse":"公共租赁住房用地",
"value":12
},
{
"code":"42",
"year":"2014",
"landUse":"廉租住房用地",
"value":7
},
{
"code":"52",
"year":"2014",
"landUse":"中低价位、中小套型普通商品住房用地",
"value":582
},
{
"code":"37",
"year":"2014",
"landUse":"高档住宅用地",
"value":1
},
{
"code":"14",
"year":"2014",
"landUse":"经济适用住房用地",
"value":19
},
{
"code":"35",
"year":"2014",
"landUse":"中低价位、中小套型普通商品住房用地",
"value":109
},
{
"code":"36",
"year":"2014",
"landUse":"廉租住房用地",
"value":1
},
{
"code":"65",
"year":"2014",
"landUse":"工业用地",
"value":807
},
{
"code":"22",
"year":"2014",
"landUse":"其他商服用地",
"value":706
},
{
"code":"35",
"year":"2014",
"landUse":"采矿用地",
"value":1
},
{
"code":"51",
"year":"2014",
"landUse":"工业用地",
"value":965
},
{
"code":"32",
"year":"2014",
"landUse":"其他商服用地",
"value":717
},
{
"code":"42",
"year":"2014",
"landUse":"采矿用地",
"value":1
},
{
"code":"64",
"year":"2014",
"landUse":"工业用地",
"value":327
},
{
"code":"44",
"year":"2014",
"landUse":"商务金融用地",
"value":138
},
{
"code":"42",
"year":"2014",
"landUse":"其他商服用地",
"value":533
},
{
"code":"37",
"year":"2014",
"landUse":"工业用地",
"value":2783
},
{
"code":"34",
"year":"2014",
"landUse":"其他商服用地",
"value":505
},
{
"code":"14",
"year":"2014",
"landUse":"其他普通商品住房用地",
"value":530
},
{
"code":"23",
"year":"2014",
"landUse":"工业用地",
"value":484
},
{
"code":"31",
"year":"2014",
"landUse":"仓储用地",
"value":7
},
{
"code":"22",
"year":"2014",
"landUse":"公共租赁住房用地",
"value":3
},
{
"code":"23",
"year":"2014",
"landUse":"廉租住房用地",
"value":4
},
{
"code":"31",
"year":"2014",
"landUse":"工业用地",
"value":122
},
{
"code":"46",
"year":"2014",
"landUse":"仓储用地",
"value":4
},
{
"code":"21",
"year":"2014",
"landUse":"住宿餐饮用地",
"value":63
},
{
"code":"61",
"year":"2014",
"landUse":"公共租赁住房用地",
"value":9
},
{
"code":"65",
"year":"2014",
"landUse":"中低价位、中小套型普通商品住房用地",
"value":169
},
{
"code":"21",
"year":"2014",
"landUse":"经济适用住房用地",
"value":4
},
{
"code":"15",
"year":"2014",
"landUse":"采矿用地",
"value":11
},
{
"code":"12",
"year":"2014",
"landUse":"工业用地",
"value":180
},
{
"code":"31",
"year":"2014",
"landUse":"商务金融用地",
"value":23
},
{
"code":"52",
"year":"2014",
"landUse":"工业用地",
"value":464
},
{
"code":"36",
"year":"2014",
"landUse":"住宿餐饮用地",
"value":71
},
{
"code":"14",
"year":"2014",
"landUse":"商务金融用地",
"value":107
},
{
"code":"15",
"year":"2014",
"landUse":"公共租赁住房用地",
"value":3
},
{
"code":"51",
"year":"2014",
"landUse":"商务金融用地",
"value":74
},
{
"code":"65",
"year":"2014",
"landUse":"经济适用住房用地",
"value":35
},
{
"code":"15",
"year":"2014",
"landUse":"仓储用地",
"value":55
},
{
"code":"14",
"year":"2014",
"landUse":"住宿餐饮用地",
"value":26
},
{
"code":"51",
"year":"2014",
"landUse":"其他商服用地",
"value":503
},
{
"code":"65",
"year":"2014",
"landUse":"其他商服用地",
"value":620
},
{
"code":"41",
"year":"2014",
"landUse":"公共租赁住房用地",
"value":11
},
{
"code":"13",
"year":"2014",
"landUse":"仓储用地",
"value":119
},
{
"code":"23",
"year":"2014",
"landUse":"公共租赁住房用地",
"value":1
},
{
"code":"37",
"year":"2014",
"landUse":"中低价位、中小套型普通商品住房用地",
"value":1164
},
{
"code":"22",
"year":"2014",
"landUse":"其他普通商品住房用地",
"value":471
},
{
"code":"33",
"year":"2014",
"landUse":"廉租住房用地",
"value":1
},
{
"code":"44",
"year":"2014",
"landUse":"工业用地",
"value":1037
},
{
"code":"42",
"year":"2014",
"landUse":"中低价位、中小套型普通商品住房用地",
"value":438
},
{
"code":"14",
"year":"2014",
"landUse":"廉租住房用地",
"value":3
},
{
"code":"33",
"year":"2014",
"landUse":"其他商服用地",
"value":424
},
{
"code":"45",
"year":"2014",
"landUse":"廉租住房用地",
"value":6
},
{
"code":"46",
"year":"2014",
"landUse":"廉租住房用地",
"value":1
},
{
"code":"42",
"year":"2014",
"landUse":"其他普通商品住房用地",
"value":2152
},
{
"code":"35",
"year":"2014",
"landUse":"商务金融用地",
"value":40
},
{
"code":"37",
"year":"2014",
"landUse":"其他普通商品住房用地",
"value":1704
},
{
"code":"42",
"year":"2014",
"landUse":"工业用地",
"value":1776
},
{
"code":"13",
"year":"2014",
"landUse":"其他商服用地",
"value":550
},
{
"code":"13",
"year":"2014",
"landUse":"中低价位、中小套型普通商品住房用地",
"value":276
},
{
"code":"14",
"year":"2014",
"landUse":"公共租赁住房用地",
"value":4
},
{
"code":"63",
"year":"2014",
"landUse":"商务金融用地",
"value":7
},
{
"code":"51",
"year":"2014",
"landUse":"住宿餐饮用地",
"value":52
},
{
"code":"36",
"year":"2014",
"landUse":"公共租赁住房用地",
"value":5
},
{
"code":"50",
"year":"2014",
"landUse":"其他商服用地",
"value":89
},
{
"code":"22",
"year":"2014",
"landUse":"采矿用地",
"value":4
},
{
"code":"21",
"year":"2014",
"landUse":"仓储用地",
"value":64
},
{
"code":"50",
"year":"2014",
"landUse":"住宿餐饮用地",
"value":27
},
{
"code":"35",
"year":"2014",
"landUse":"其他商服用地",
"value":52
},
{
"code":"13",
"year":"2014",
"landUse":"经济适用住房用地",
"value":21
},
{
"code":"50",
"year":"2014",
"landUse":"商务金融用地",
"value":27
},
{
"code":"21",
"year":"2014",
"landUse":"采矿用地",
"value":9
},
{
"code":"22",
"year":"2014",
"landUse":"商务金融用地",
"value":58
},
{
"code":"33",
"year":"2014",
"landUse":"商务金融用地",
"value":99
},
{
"code":"45",
"year":"2014",
"landUse":"公共租赁住房用地",
"value":6
},
{
"code":"22",
"year":"2014",
"landUse":"住宿餐饮用地",
"value":45
},
{
"code":"41",
"year":"2014",
"landUse":"经济适用住房用地",
"value":35
},
{
"code":"31",
"year":"2014",
"landUse":"其他商服用地",
"value":49
},
{
"code":"14",
"year":"2014",
"landUse":"仓储用地",
"value":47
},
{
"code":"35",
"year":"2014",
"landUse":"其他普通商品住房用地",
"value":263
},
{
"code":"34",
"year":"2014",
"landUse":"商务金融用地",
"value":81
},
{
"code":"45",
"year":"2014",
"landUse":"工业用地",
"value":516
},
{
"code":"23",
"year":"2014",
"landUse":"经济适用住房用地",
"value":4
},
{
"code":"53",
"year":"2014",
"landUse":"其他普通商品住房用地",
"value":1890
},
{
"code":"37",
"year":"2014",
"landUse":"廉租住房用地",
"value":1
},
{
"code":"14",
"year":"2014",
"landUse":"其他商服用地",
"value":373
},
{
"code":"34",
"year":"2014",
"landUse":"住宿餐饮用地",
"value":40
},
{
"code":"62",
"year":"2014",
"landUse":"公共租赁住房用地",
"value":7
},
{
"code":"61",
"year":"2014",
"landUse":"工业用地",
"value":453
},
{
"code":"22",
"year":"2014",
"landUse":"工业用地",
"value":724
},
{
"code":"44",
"year":"2014",
"landUse":"高档住宅用地",
"value":2
},
{
"code":"41",
"year":"2014",
"landUse":"中低价位、中小套型普通商品住房用地",
"value":316
},
{
"code":"15",
"year":"2014",
"landUse":"中低价位、中小套型普通商品住房用地",
"value":388
},
{
"code":"35",
"year":"2014",
"landUse":"廉租住房用地",
"value":2
},
{
"code":"34",
"year":"2014",
"landUse":"其他普通商品住房用地",
"value":571
},
{
"code":"63",
"year":"2014",
"landUse":"其他商服用地",
"value":240
},
{
"code":"43",
"year":"2014",
"landUse":"商务金融用地",
"value":303
},
{
"code":"50",
"year":"2014",
"landUse":"其他普通商品住房用地",
"value":277
},
{
"code":"33",
"year":"2014",
"landUse":"住宿餐饮用地",
"value":61
},
{
"code":"35",
"year":"2014",
"landUse":"仓储用地",
"value":75
},
{
"code":"42",
"year":"2014",
"landUse":"经济适用住房用地",
"value":39
},
{
"code":"22",
"year":"2014",
"landUse":"经济适用住房用地",
"value":29
},
{
"code":"52",
"year":"2014",
"landUse":"经济适用住房用地",
"value":22
},
{
"code":"21",
"year":"2014",
"landUse":"其他普通商品住房用地",
"value":396
},
{
"code":"33",
"year":"2014",
"landUse":"公共租赁住房用地",
"value":4
},
{
"code":"36",
"year":"2014",
"landUse":"经济适用住房用地",
"value":6
},
{
"code":"14",
"year":"2014",
"landUse":"采矿用地",
"value":14
},
{
"code":"23",
"year":"2014",
"landUse":"住宿餐饮用地",
"value":48
},
{
"code":"64",
"year":"2014",
"landUse":"住宿餐饮用地",
"value":6
},
{
"code":"53",
"year":"2014",
"landUse":"中低价位、中小套型普通商品住房用地",
"value":180
},
{
"code":"13",
"year":"2014",
"landUse":"廉租住房用地",
"value":7
},
{
"code":"46",
"year":"2014",
"landUse":"中低价位、中小套型普通商品住房用地",
"value":37
},
{
"code":"65",
"year":"2014",
"landUse":"采矿用地",
"value":10
},
{
"code":"11",
"year":"2014",
"landUse":"住宿餐饮用地",
"value":8
},
{
"code":"43",
"year":"2014",
"landUse":"公共租赁住房用地",
"value":13
},
{
"code":"63",
"year":"2014",
"landUse":"工业用地",
"value":66
},
{
"code":"11",
"year":"2014",
"landUse":"商务金融用地",
"value":52
},
{
"code":"44",
"year":"2014",
"landUse":"住宿餐饮用地",
"value":128
},
{
"code":"63",
"year":"2014",
"landUse":"仓储用地",
"value":11
},
{
"code":"36",
"year":"2014",
"landUse":"工业用地",
"value":1031
},
{
"code":"53",
"year":"2014",
"landUse":"仓储用地",
"value":68
},
{
"code":"34",
"year":"2014",
"landUse":"廉租住房用地",
"value":11
},
{
"code":"41",
"year":"2014",
"landUse":"商务金融用地",
"value":137
},
{
"code":"41",
"year":"2014",
"landUse":"采矿用地",
"value":24
},
{
"code":"13",
"year":"2014",
"landUse":"工业用地",
"value":1848
},
{
"code":"36",
"year":"2014",
"landUse":"其他商服用地",
"value":380
},
{
"code":"50",
"year":"2014",
"landUse":"公共租赁住房用地",
"value":1
},
{
"code":"50",
"year":"2014",
"landUse":"工业用地",
"value":338
},
{
"code":"23",
"year":"2014",
"landUse":"其他商服用地",
"value":400
},
{
"code":"33",
"year":"2014",
"landUse":"高档住宅用地",
"value":2
},
{
"code":"62",
"year":"2014",
"landUse":"工业用地",
"value":413
},
{
"code":"45",
"year":"2014",
"landUse":"仓储用地",
"value":67
},
{
"code":"45",
"year":"2014",
"landUse":"中低价位、中小套型普通商品住房用地",
"value":645
},
{
"code":"50",
"year":"2014",
"landUse":"中低价位、中小套型普通商品住房用地",
"value":106
},
{
"code":"37",
"year":"2014",
"landUse":"经济适用住房用地",
"value":58
},
{
"code":"61",
"year":"2014",
"landUse":"住宿餐饮用地",
"value":32
},
{
"code":"15",
"year":"2014",
"landUse":"工业用地",
"value":741
},
{
"code":"13",
"year":"2014",
"landUse":"其他普通商品住房用地",
"value":1018
},
{
"code":"35",
"year":"2014",
"landUse":"住宿餐饮用地",
"value":30
},
{
"code":"52",
"year":"2014",
"landUse":"商务金融用地",
"value":104
},
{
"code":"46",
"year":"2014",
"landUse":"商务金融用地",
"value":9
},
{
"code":"12",
"year":"2014",
"landUse":"其他商服用地",
"value":143
},
{
"code":"53",
"year":"2014",
"landUse":"公共租赁住房用地",
"value":39
},
{
"code":"42",
"year":"2014",
"landUse":"住宿餐饮用地",
"value":84
},
{
"code":"65",
"year":"2014",
"landUse":"廉租住房用地",
"value":5
},
{
"code":"63",
"year":"2014",
"landUse":"其他普通商品住房用地",
"value":69
},
{
"code":"53",
"year":"2014",
"landUse":"廉租住房用地",
"value":6
},
{
"code":"62",
"year":"2014",
"landUse":"中低价位、中小套型普通商品住房用地",
"value":169
},
{
"code":"62",
"year":"2014",
"landUse":"经济适用住房用地",
"value":9
},
{
"code":"62",
"year":"2014",
"landUse":"其他商服用地",
"value":293
},
{
"code":"65",
"year":"2014",
"landUse":"仓储用地",
"value":78
},
{
"code":"51",
"year":"2014",
"landUse":"仓储用地",
"value":122
},
{
"code":"52",
"year":"2014",
"landUse":"住宿餐饮用地",
"value":42
},
{
"code":"43",
"year":"2014",
"landUse":"廉租住房用地",
"value":8
},
{
"code":"36",
"year":"2014",
"landUse":"仓储用地",
"value":42
},
{
"code":"45",
"year":"2014",
"landUse":"商务金融用地",
"value":37
},
{
"code":"11",
"year":"2014",
"landUse":"其他普通商品住房用地",
"value":65
},
{
"code":"21",
"year":"2014",
"landUse":"工业用地",
"value":1083
},
{
"code":"53",
"year":"2014",
"landUse":"住宿餐饮用地",
"value":68
},
{
"code":"44",
"year":"2014",
"landUse":"其他商服用地",
"value":289
},
{
"code":"35",
"year":"2014",
"landUse":"公共租赁住房用地",
"value":3
},
{
"code":"44",
"year":"2014",
"landUse":"中低价位、中小套型普通商品住房用地",
"value":579
},
{
"code":"53",
"year":"2014",
"landUse":"工业用地",
"value":339
},
{
"code":"43",
"year":"2014",
"landUse":"高档住宅用地",
"value":2
},
{
"code":"33",
"year":"2014",
"landUse":"中低价位、中小套型普通商品住房用地",
"value":971
},
{
"code":"52",
"year":"2014",
"landUse":"其他商服用地",
"value":505
},
{
"code":"15",
"year":"2014",
"landUse":"廉租住房用地",
"value":2
},
{
"code":"34",
"year":"2014",
"landUse":"工业用地",
"value":1887
},
{
"code":"32",
"year":"2014",
"landUse":"其他普通商品住房用地",
"value":872
},
{
"code":"52",
"year":"2014",
"landUse":"采矿用地",
"value":1
},
{
"code":"41",
"year":"2014",
"landUse":"其他商服用地",
"value":379
},
{
"code":"45",
"year":"2014",
"landUse":"经济适用住房用地",
"value":51
},
{
"code":"45",
"year":"2014",
"landUse":"其他普通商品住房用地",
"value":2441
},
{
"code":"50",
"year":"2014",
"landUse":"廉租住房用地",
"value":4
},
{
"code":"15",
"year":"2014",
"landUse":"商务金融用地",
"value":86
},
{
"code":"42",
"year":"2014",
"landUse":"商务金融用地",
"value":59
},
{
"code":"37",
"year":"2014",
"landUse":"其他商服用地",
"value":520
},
{
"code":"52",
"year":"2014",
"landUse":"廉租住房用地",
"value":4
},
{
"code":"32",
"year":"2014",
"landUse":"公共租赁住房用地",
"value":3
},
{
"code":"46",
"year":"2014",
"landUse":"其他商服用地",
"value":13
},
{
"code":"22",
"year":"2014",
"landUse":"廉租住房用地",
"value":15
},
{
"code":"37",
"year":"2014",
"landUse":"仓储用地",
"value":167
},
{
"code":"52",
"year":"2014",
"landUse":"公共租赁住房用地",
"value":7
},
{
"code":"65",
"year":"2014",
"landUse":"其他普通商品住房用地",
"value":311
},
{
"code":"12",
"year":"2014",
"landUse":"仓储用地",
"value":11
},
{
"code":"13",
"year":"2014",
"landUse":"住宿餐饮用地",
"value":107
},
{
"code":"62",
"year":"2014",
"landUse":"廉租住房用地",
"value":1
},
{
"code":"34",
"year":"2014",
"landUse":"经济适用住房用地",
"value":61
},
{
"code":"46",
"year":"2014",
"landUse":"工业用地",
"value":40
},
{
"code":"62",
"year":"2014",
"landUse":"其他普通商品住房用地",
"value":251
},
{
"code":"65",
"year":"2014",
"landUse":"商务金融用地",
"value":41
},
{
"code":"61",
"year":"2014",
"landUse":"高档住宅用地",
"value":1
},
{
"code":"61",
"year":"2014",
"landUse":"廉租住房用地",
"value":30
},
{
"code":"34",
"year":"2014",
"landUse":"公共租赁住房用地",
"value":21
},
{
"code":"45",
"year":"2014",
"landUse":"采矿用地",
"value":1
},
{
"code":"11",
"year":"2014",
"landUse":"其他商服用地",
"value":65
},
{
"code":"51",
"year":"2015",
"landUse":"其他普通商品住房用地",
"value":240
},
{
"code":"13",
"year":"2015",
"landUse":"其他普通商品住房用地",
"value":99
},
{
"code":"43",
"year":"2015",
"landUse":"其他普通商品住房用地",
"value":381
},
{
"code":"13",
"year":"2015",
"landUse":"其他商服用地",
"value":37
},
{
"code":"62",
"year":"2015",
"landUse":"商务金融用地",
"value":3
},
{
"code":"34",
"year":"2015",
"landUse":"中低价位、中小套型普通商品住房用地",
"value":10
},
{
"code":"23",
"year":"2015",
"landUse":"其他普通商品住房用地",
"value":26
},
{
"code":"34",
"year":"2015",
"landUse":"商务金融用地",
"value":47
},
{
"code":"35",
"year":"2015",
"landUse":"其他商服用地",
"value":2
},
{
"code":"23",
"year":"2015",
"landUse":"中低价位、中小套型普通商品住房用地",
"value":10
},
{
"code":"11",
"year":"2015",
"landUse":"其他普通商品住房用地",
"value":2
},
{
"code":"14",
"year":"2015",
"landUse":"经济适用住房用地",
"value":2
},
{
"code":"61",
"year":"2015",
"landUse":"其他商服用地",
"value":16
},
{
"code":"15",
"year":"2015",
"landUse":"经济适用住房用地",
"value":1
},
{
"code":"32",
"year":"2015",
"landUse":"其他商服用地",
"value":122
},
{
"code":"34",
"year":"2015",
"landUse":"公共租赁住房用地",
"value":1
},
{
"code":"22",
"year":"2015",
"landUse":"住宿餐饮用地",
"value":1
},
{
"code":"15",
"year":"2015",
"landUse":"住宿餐饮用地",
"value":6
},
{
"code":"33",
"year":"2015",
"landUse":"住宿餐饮用地",
"value":12
},
{
"code":"37",
"year":"2015",
"landUse":"采矿用地",
"value":4
},
{
"code":"36",
"year":"2015",
"landUse":"商务金融用地",
"value":4
},
{
"code":"61",
"year":"2015",
"landUse":"经济适用住房用地",
"value":1
},
{
"code":"37",
"year":"2015",
"landUse":"经济适用住房用地",
"value":5
},
{
"code":"52",
"year":"2015",
"landUse":"住宿餐饮用地",
"value":2
},
{
"code":"23",
"year":"2015",
"landUse":"商务金融用地",
"value":3
},
{
"code":"13",
"year":"2015",
"landUse":"采矿用地",
"value":1
},
{
"code":"34",
"year":"2015",
"landUse":"工业用地",
"value":130
},
{
"code":"51",
"year":"2015",
"landUse":"公共租赁住房用地",
"value":1
},
{
"code":"15",
"year":"2015",
"landUse":"仓储用地",
"value":9
},
{
"code":"15",
"year":"2015",
"landUse":"其他普通商品住房用地",
"value":46
},
{
"code":"32",
"year":"2015",
"landUse":"其他普通商品住房用地",
"value":136
},
{
"code":"45",
"year":"2015",
"landUse":"其他普通商品住房用地",
"value":275
},
{
"code":"22",
"year":"2015",
"landUse":"工业用地",
"value":29
},
{
"code":"13",
"year":"2015",
"landUse":"工业用地",
"value":158
},
{
"code":"62",
"year":"2015",
"landUse":"住宿餐饮用地",
"value":5
},
{
"code":"65",
"year":"2015",
"landUse":"工业用地",
"value":27
},
{
"code":"42",
"year":"2015",
"landUse":"公共租赁住房用地",
"value":4
},
{
"code":"14",
"year":"2015",
"landUse":"住宿餐饮用地",
"value":1
},
{
"code":"50",
"year":"2015",
"landUse":"仓储用地",
"value":5
},
{
"code":"35",
"year":"2015",
"landUse":"住宿餐饮用地",
"value":1
},
{
"code":"22",
"year":"2015",
"landUse":"经济适用住房用地",
"value":1
},
{
"code":"14",
"year":"2015",
"landUse":"其他普通商品住房用地",
"value":22
},
{
"code":"64",
"year":"2015",
"landUse":"工业用地",
"value":17
},
{
"code":"41",
"year":"2015",
"landUse":"公共租赁住房用地",
"value":5
},
{
"code":"42",
"year":"2015",
"landUse":"廉租住房用地",
"value":1
},
{
"code":"61",
"year":"2015",
"landUse":"仓储用地",
"value":3
},
{
"code":"45",
"year":"2015",
"landUse":"住宿餐饮用地",
"value":1
},
{
"code":"11",
"year":"2015",
"landUse":"商务金融用地",
"value":3
},
{
"code":"42",
"year":"2015",
"landUse":"商务金融用地",
"value":6
},
{
"code":"15",
"year":"2015",
"landUse":"廉租住房用地",
"value":1
},
{
"code":"33",
"year":"2015",
"landUse":"其他商服用地",
"value":30
},
{
"code":"46",
"year":"2015",
"landUse":"其他普通商品住房用地",
"value":13
},
{
"code":"37",
"year":"2015",
"landUse":"公共租赁住房用地",
"value":1
},
{
"code":"32",
"year":"2015",
"landUse":"经济适用住房用地",
"value":17
},
{
"code":"21",
"year":"2015",
"landUse":"住宿餐饮用地",
"value":3
},
{
"code":"36",
"year":"2015",
"landUse":"工业用地",
"value":100
},
{
"code":"52",
"year":"2015",
"landUse":"公共租赁住房用地",
"value":4
},
{
"code":"33",
"year":"2015",
"landUse":"中低价位、中小套型普通商品住房用地",
"value":84
},
{
"code":"41",
"year":"2015",
"landUse":"仓储用地",
"value":17
},
{
"code":"21",
"year":"2015",
"landUse":"工业用地",
"value":84
},
{
"code":"65",
"year":"2015",
"landUse":"住宿餐饮用地",
"value":1
},
{
"code":"34",
"year":"2015",
"landUse":"其他普通商品住房用地",
"value":59
},
{
"code":"41",
"year":"2015",
"landUse":"工业用地",
"value":123
},
{
"code":"45",
"year":"2015",
"landUse":"工业用地",
"value":42
},
{
"code":"65",
"year":"2015",
"landUse":"其他普通商品住房用地",
"value":24
},
{
"code":"33",
"year":"2015",
"landUse":"经济适用住房用地",
"value":16
},
{
"code":"43",
"year":"2015",
"landUse":"公共租赁住房用地",
"value":4
},
{
"code":"14",
"year":"2015",
"landUse":"中低价位、中小套型普通商品住房用地",
"value":3
},
{
"code":"23",
"year":"2015",
"landUse":"工业用地",
"value":43
},
{
"code":"34",
"year":"2015",
"landUse":"其他商服用地",
"value":28
},
{
"code":"44",
"year":"2015",
"landUse":"仓储用地",
"value":1
},
{
"code":"37",
"year":"2015",
"landUse":"商务金融用地",
"value":29
},
{
"code":"12",
"year":"2015",
"landUse":"其他商服用地",
"value":8
},
{
"code":"43",
"year":"2015",
"landUse":"采矿用地",
"value":1
},
{
"code":"32",
"year":"2015",
"landUse":"中低价位、中小套型普通商品住房用地",
"value":52
},
{
"code":"61",
"year":"2015",
"landUse":"工业用地",
"value":18
},
{
"code":"65",
"year":"2015",
"landUse":"经济适用住房用地",
"value":1
},
{
"code":"36",
"year":"2015",
"landUse":"仓储用地",
"value":5
},
{
"code":"22",
"year":"2015",
"landUse":"商务金融用地",
"value":3
},
{
"code":"64",
"year":"2015",
"landUse":"其他普通商品住房用地",
"value":3
},
{
"code":"37",
"year":"2015",
"landUse":"仓储用地",
"value":13
},
{
"code":"46",
"year":"2015",
"landUse":"工业用地",
"value":2
},
{
"code":"53",
"year":"2015",
"landUse":"住宿餐饮用地",
"value":3
},
{
"code":"46",
"year":"2015",
"landUse":"中低价位、中小套型普通商品住房用地",
"value":2
},
{
"code":"53",
"year":"2015",
"landUse":"中低价位、中小套型普通商品住房用地",
"value":6
},
{
"code":"22",
"year":"2015",
"landUse":"仓储用地",
"value":8
},
{
"code":"15",
"year":"2015",
"landUse":"其他商服用地",
"value":63
},
{
"code":"50",
"year":"2015",
"landUse":"商务金融用地",
"value":3
},
{
"code":"43",
"year":"2015",
"landUse":"其他商服用地",
"value":83
},
{
"code":"37",
"year":"2015",
"landUse":"工业用地",
"value":188
},
{
"code":"35",
"year":"2015",
"landUse":"工业用地",
"value":85
},
{
"code":"44",
"year":"2015",
"landUse":"工业用地",
"value":103
},
{
"code":"15",
"year":"2015",
"landUse":"工业用地",
"value":46
},
{
"code":"22",
"year":"2015",
"landUse":"中低价位、中小套型普通商品住房用地",
"value":4
},
{
"code":"52",
"year":"2015",
"landUse":"中低价位、中小套型普通商品住房用地",
"value":32
},
{
"code":"63",
"year":"2015",
"landUse":"其他商服用地",
"value":8
},
{
"code":"35",
"year":"2015",
"landUse":"其他普通商品住房用地",
"value":11
},
{
"code":"51",
"year":"2015",
"landUse":"仓储用地",
"value":5
},
{
"code":"34",
"year":"2015",
"landUse":"仓储用地",
"value":10
},
{
"code":"45",
"year":"2015",
"landUse":"仓储用地",
"value":4
},
{
"code":"65",
"year":"2015",
"landUse":"廉租住房用地",
"value":1
},
{
"code":"51",
"year":"2015",
"landUse":"经济适用住房用地",
"value":2
},
{
"code":"34",
"year":"2015",
"landUse":"经济适用住房用地",
"value":5
},
{
"code":"44",
"year":"2015",
"landUse":"住宿餐饮用地",
"value":2
},
{
"code":"31",
"year":"2015",
"landUse":"商务金融用地",
"value":3
},
{
"code":"62",
"year":"2015",
"landUse":"仓储用地",
"value":2
},
{
"code":"63",
"year":"2015",
"landUse":"商务金融用地",
"value":2
},
{
"code":"11",
"year":"2015",
"landUse":"其他商服用地",
"value":4
},
{
"code":"62",
"year":"2015",
"landUse":"其他普通商品住房用地",
"value":26
},
{
"code":"45",
"year":"2015",
"landUse":"公共租赁住房用地",
"value":1
},
{
"code":"23",
"year":"2015",
"landUse":"其他商服用地",
"value":41
},
{
"code":"12",
"year":"2015",
"landUse":"商务金融用地",
"value":1
},
{
"code":"13",
"year":"2015",
"landUse":"中低价位、中小套型普通商品住房用地",
"value":12
},
{
"code":"36",
"year":"2015",
"landUse":"住宿餐饮用地",
"value":4
},
{
"code":"32",
"year":"2015",
"landUse":"仓储用地",
"value":21
},
{
"code":"45",
"year":"2015",
"landUse":"商务金融用地",
"value":3
},
{
"code":"42",
"year":"2015",
"landUse":"其他商服用地",
"value":31
},
{
"code":"21",
"year":"2015",
"landUse":"其他普通商品住房用地",
"value":30
},
{
"code":"42",
"year":"2015",
"landUse":"工业用地",
"value":163
},
{
"code":"42",
"year":"2015",
"landUse":"仓储用地",
"value":11
},
{
"code":"41",
"year":"2015",
"landUse":"住宿餐饮用地",
"value":4
},
{
"code":"37",
"year":"2015",
"landUse":"中低价位、中小套型普通商品住房用地",
"value":79
},
{
"code":"51",
"year":"2015",
"landUse":"其他商服用地",
"value":62
},
{
"code":"52",
"year":"2015",
"landUse":"工业用地",
"value":46
},
{
"code":"51",
"year":"2015",
"landUse":"工业用地",
"value":141
},
{
"code":"21",
"year":"2015",
"landUse":"中低价位、中小套型普通商品住房用地",
"value":9
},
{
"code":"64",
"year":"2015",
"landUse":"中低价位、中小套型普通商品住房用地",
"value":2
},
{
"code":"21",
"year":"2015",
"landUse":"其他商服用地",
"value":20
},
{
"code":"65",
"year":"2015",
"landUse":"中低价位、中小套型普通商品住房用地",
"value":7
},
{
"code":"34",
"year":"2015",
"landUse":"采矿用地",
"value":9
},
{
"code":"14",
"year":"2015",
"landUse":"其他商服用地",
"value":21
},
{
"code":"22",
"year":"2015",
"landUse":"其他普通商品住房用地",
"value":28
},
{
"code":"23",
"year":"2015",
"landUse":"住宿餐饮用地",
"value":2
},
{
"code":"31",
"year":"2015",
"landUse":"其他普通商品住房用地",
"value":2
},
{
"code":"41",
"year":"2015",
"landUse":"经济适用住房用地",
"value":2
},
{
"code":"11",
"year":"2015",
"landUse":"工业用地",
"value":1
},
{
"code":"64",
"year":"2015",
"landUse":"其他商服用地",
"value":12
},
{
"code":"61",
"year":"2015",
"landUse":"中低价位、中小套型普通商品住房用地",
"value":3
},
{
"code":"21",
"year":"2015",
"landUse":"商务金融用地",
"value":4
},
{
"code":"14",
"year":"2015",
"landUse":"商务金融用地",
"value":37
},
{
"code":"53",
"year":"2015",
"landUse":"廉租住房用地",
"value":1
},
{
"code":"63",
"year":"2015",
"landUse":"工业用地",
"value":16
},
{
"code":"32",
"year":"2015",
"landUse":"住宿餐饮用地",
"value":6
},
{
"code":"65",
"year":"2015",
"landUse":"高档住宅用地",
"value":3
},
{
"code":"44",
"year":"2015",
"landUse":"中低价位、中小套型普通商品住房用地",
"value":41
},
{
"code":"12",
"year":"2015",
"landUse":"仓储用地",
"value":3
},
{
"code":"36",
"year":"2015",
"landUse":"其他普通商品住房用地",
"value":91
},
{
"code":"62",
"year":"2015",
"landUse":"其他商服用地",
"value":39
},
{
"code":"32",
"year":"2015",
"landUse":"工业用地",
"value":352
},
{
"code":"45",
"year":"2015",
"landUse":"中低价位、中小套型普通商品住房用地",
"value":42
},
{
"code":"35",
"year":"2015",
"landUse":"仓储用地",
"value":8
},
{
"code":"52",
"year":"2015",
"landUse":"商务金融用地",
"value":2
},
{
"code":"23",
"year":"2015",
"landUse":"仓储用地",
"value":12
},
{
"code":"42",
"year":"2015",
"landUse":"住宿餐饮用地",
"value":4
},
{
"code":"43",
"year":"2015",
"landUse":"商务金融用地",
"value":7
},
{
"code":"37",
"year":"2015",
"landUse":"其他普通商品住房用地",
"value":164
},
{
"code":"63",
"year":"2015",
"landUse":"其他普通商品住房用地",
"value":6
},
{
"code":"46",
"year":"2015",
"landUse":"商务金融用地",
"value":1
},
{
"code":"35",
"year":"2015",
"landUse":"商务金融用地",
"value":7
},
{
"code":"53",
"year":"2015",
"landUse":"仓储用地",
"value":5
},
{
"code":"61",
"year":"2015",
"landUse":"商务金融用地",
"value":2
},
{
"code":"15",
"year":"2015",
"landUse":"商务金融用地",
"value":7
},
{
"code":"21",
"year":"2015",
"landUse":"仓储用地",
"value":4
},
{
"code":"65",
"year":"2015",
"landUse":"商务金融用地",
"value":1
},
{
"code":"53",
"year":"2015",
"landUse":"其他商服用地",
"value":28
},
{
"code":"62",
"year":"2015",
"landUse":"中低价位、中小套型普通商品住房用地",
"value":6
},
{
"code":"51",
"year":"2015",
"landUse":"商务金融用地",
"value":12
},
{
"code":"43",
"year":"2015",
"landUse":"中低价位、中小套型普通商品住房用地",
"value":29
},
{
"code":"50",
"year":"2015",
"landUse":"中低价位、中小套型普通商品住房用地",
"value":8
},
{
"code":"23",
"year":"2015",
"landUse":"经济适用住房用地",
"value":1
},
{
"code":"63",
"year":"2015",
"landUse":"中低价位、中小套型普通商品住房用地",
"value":2
},
{
"code":"61",
"year":"2015",
"landUse":"住宿餐饮用地",
"value":2
},
{
"code":"33",
"year":"2015",
"landUse":"商务金融用地",
"value":12
},
{
"code":"31",
"year":"2015",
"landUse":"其他商服用地",
"value":5
},
{
"code":"42",
"year":"2015",
"landUse":"其他普通商品住房用地",
"value":215
},
{
"code":"53",
"year":"2015",
"landUse":"其他普通商品住房用地",
"value":115
},
{
"code":"12",
"year":"2015",
"landUse":"其他普通商品住房用地",
"value":8
},
{
"code":"42",
"year":"2015",
"landUse":"中低价位、中小套型普通商品住房用地",
"value":40
},
{
"code":"62",
"year":"2015",
"landUse":"工业用地",
"value":46
},
{
"code":"50",
"year":"2015",
"landUse":"其他普通商品住房用地",
"value":13
},
{
"code":"14",
"year":"2015",
"landUse":"仓储用地",
"value":6
},
{
"code":"52",
"year":"2015",
"landUse":"仓储用地",
"value":7
},
{
"code":"37",
"year":"2015",
"landUse":"住宿餐饮用地",
"value":10
},
{
"code":"44",
"year":"2015",
"landUse":"其他商服用地",
"value":28
},
{
"code":"43",
"year":"2015",
"landUse":"住宿餐饮用地",
"value":1
},
{
"code":"15",
"year":"2015",
"landUse":"中低价位、中小套型普通商品住房用地",
"value":22
},
{
"code":"52",
"year":"2015",
"landUse":"经济适用住房用地",
"value":22
},
{
"code":"51",
"year":"2015",
"landUse":"住宿餐饮用地",
"value":1
},
{
"code":"12",
"year":"2015",
"landUse":"工业用地",
"value":9
},
{
"code":"33",
"year":"2015",
"landUse":"仓储用地",
"value":13
},
{
"code":"21",
"year":"2015",
"landUse":"经济适用住房用地",
"value":1
},
{
"code":"61",
"year":"2015",
"landUse":"其他普通商品住房用地",
"value":67
},
{
"code":"52",
"year":"2015",
"landUse":"其他商服用地",
"value":70
},
{
"code":"51",
"year":"2015",
"landUse":"廉租住房用地",
"value":1
},
{
"code":"13",
"year":"2015",
"landUse":"商务金融用地",
"value":11
},
{
"code":"35",
"year":"2015",
"landUse":"中低价位、中小套型普通商品住房用地",
"value":8
},
{
"code":"65",
"year":"2015",
"landUse":"其他商服用地",
"value":38
},
{
"code":"50",
"year":"2015",
"landUse":"其他商服用地",
"value":4
},
{
"code":"13",
"year":"2015",
"landUse":"仓储用地",
"value":9
},
{
"code":"65",
"year":"2015",
"landUse":"采矿用地",
"value":2
},
{
"code":"50",
"year":"2015",
"landUse":"经济适用住房用地",
"value":2
},
{
"code":"43",
"year":"2015",
"landUse":"工业用地",
"value":75
},
{
"code":"41",
"year":"2015",
"landUse":"其他普通商品住房用地",
"value":97
},
{
"code":"33",
"year":"2015",
"landUse":"工业用地",
"value":187
},
{
"code":"14",
"year":"2015",
"landUse":"工业用地",
"value":45
},
{
"code":"44",
"year":"2015",
"landUse":"其他普通商品住房用地",
"value":292
},
{
"code":"36",
"year":"2015",
"landUse":"其他商服用地",
"value":46
},
{
"code":"41",
"year":"2015",
"landUse":"其他商服用地",
"value":27
},
{
"code":"36",
"year":"2015",
"landUse":"中低价位、中小套型普通商品住房用地",
"value":10
},
{
"code":"51",
"year":"2015",
"landUse":"中低价位、中小套型普通商品住房用地",
"value":187
},
{
"code":"43",
"year":"2015",
"landUse":"廉租住房用地",
"value":9
},
{
"code":"50",
"year":"2015",
"landUse":"工业用地",
"value":32
},
{
"code":"41",
"year":"2015",
"landUse":"中低价位、中小套型普通商品住房用地",
"value":24
},
{
"code":"43",
"year":"2015",
"landUse":"经济适用住房用地",
"value":2
},
{
"code":"37",
"year":"2015",
"landUse":"其他商服用地",
"value":40
},
{
"code":"43",
"year":"2015",
"landUse":"仓储用地",
"value":12
},
{
"code":"34",
"year":"2015",
"landUse":"住宿餐饮用地",
"value":1
},
{
"code":"32",
"year":"2015",
"landUse":"商务金融用地",
"value":11
},
{
"code":"13",
"year":"2015",
"landUse":"住宿餐饮用地",
"value":4
},
{
"code":"42",
"year":"2015",
"landUse":"经济适用住房用地",
"value":3
},
{
"code":"65",
"year":"2015",
"landUse":"仓储用地",
"value":4
},
{
"code":"31",
"year":"2015",
"landUse":"中低价位、中小套型普通商品住房用地",
"value":5
},
{
"code":"31",
"year":"2015",
"landUse":"工业用地",
"value":4
},
{
"code":"41",
"year":"2015",
"landUse":"商务金融用地",
"value":5
},
{
"code":"53",
"year":"2015",
"landUse":"商务金融用地",
"value":9
},
{
"code":"52",
"year":"2015",
"landUse":"其他普通商品住房用地",
"value":51
},
{
"code":"45",
"year":"2015",
"landUse":"其他商服用地",
"value":16
},
{
"code":"22",
"year":"2015",
"landUse":"其他商服用地",
"value":27
},
{
"code":"44",
"year":"2015",
"landUse":"商务金融用地",
"value":4
},
{
"code":"11",
"year":"2015",
"landUse":"中低价位、中小套型普通商品住房用地",
"value":2
},
{
"code":"53",
"year":"2015",
"landUse":"工业用地",
"value":30
},
{
"code":"64",
"year":"2016",
"landUse":"中低价位、中小套型普通商品住房用地",
"value":10
},
{
"code":"13",
"year":"2016",
"landUse":"经济适用住房用地",
"value":23
},
{
"code":"36",
"year":"2016",
"landUse":"住宿餐饮用地",
"value":37
},
{
"code":"52",
"year":"2016",
"landUse":"其他普通商品住房用地",
"value":596
},
{
"code":"12",
"year":"2016",
"landUse":"中低价位、中小套型普通商品住房用地",
"value":1
},
{
"code":"23",
"year":"2016",
"landUse":"住宿餐饮用地",
"value":28
},
{
"code":"32",
"year":"2016",
"landUse":"公共租赁住房用地",
"value":3
},
{
"code":"41",
"year":"2016",
"landUse":"公共租赁住房用地",
"value":34
},
{
"code":"35",
"year":"2016",
"landUse":"廉租住房用地",
"value":1
},
{
"code":"13",
"year":"2016",
"landUse":"公共租赁住房用地",
"value":12
},
{
"code":"36",
"year":"2016",
"landUse":"其他商服用地",
"value":292
},
{
"code":"50",
"year":"2016",
"landUse":"住宅用地",
"value":2
},
{
"code":"42",
"year":"2016",
"landUse":"采矿用地",
"value":27
},
{
"code":"37",
"year":"2016",
"landUse":"公共租赁住房用地",
"value":32
},
{
"code":"32",
"year":"2016",
"landUse":"商务金融用地",
"value":157
},
{
"code":"13",
"year":"2016",
"landUse":"工业用地",
"value":1855
},
{
"code":"63",
"year":"2016",
"landUse":"廉租住房用地",
"value":2
},
{
"code":"46",
"year":"2016",
"landUse":"工业用地",
"value":32
},
{
"code":"44",
"year":"2016",
"landUse":"工业用地",
"value":1066
},
{
"code":"51",
"year":"2016",
"landUse":"中低价位、中小套型普通商品住房用地",
"value":517
},
{
"code":"23",
"year":"2016",
"landUse":"采矿用地",
"value":1
},
{
"code":"23",
"year":"2016",
"landUse":"其他商服用地",
"value":357
},
{
"code":"65",
"year":"2016",
"landUse":"其他商服用地",
"value":438
},
{
"code":"36",
"year":"2016",
"landUse":"其他普通商品住房用地",
"value":687
},
{
"code":"46",
"year":"2016",
"landUse":"中低价位、中小套型普通商品住房用地",
"value":33
},
{
"code":"65",
"year":"2016",
"landUse":"廉租住房用地",
"value":6
},
{
"code":"65",
"year":"2016",
"landUse":"中低价位、中小套型普通商品住房用地",
"value":96
},
{
"code":"35",
"year":"2016",
"landUse":"仓储用地",
"value":67
},
{
"code":"31",
"year":"2016",
"landUse":"其他商服用地",
"value":32
},
{
"code":"51",
"year":"2016",
"landUse":"其他普通商品住房用地",
"value":1798
},
{
"code":"41",
"year":"2016",
"landUse":"中低价位、中小套型普通商品住房用地",
"value":242
},
{
"code":"44",
"year":"2016",
"landUse":"公共租赁住房用地",
"value":4
},
{
"code":"14",
"year":"2016",
"landUse":"仓储用地",
"value":45
},
{
"code":"23",
"year":"2016",
"landUse":"商务金融用地",
"value":24
},
{
"code":"53",
"year":"2016",
"landUse":"工业用地",
"value":433
},
{
"code":"62",
"year":"2016",
"landUse":"采矿用地",
"value":5
},
{
"code":"61",
"year":"2016",
"landUse":"其他商服用地",
"value":279
},
{
"code":"11",
"year":"2016",
"landUse":"住宿餐饮用地",
"value":1
},
{
"code":"44",
"year":"2016",
"landUse":"仓储用地",
"value":51
},
{
"code":"63",
"year":"2016",
"landUse":"仓储用地",
"value":7
},
{
"code":"37",
"year":"2016",
"landUse":"经济适用住房用地",
"value":62
},
{
"code":"45",
"year":"2016",
"landUse":"廉租住房用地",
"value":1
},
{
"code":"37",
"year":"2016",
"landUse":"仓储用地",
"value":172
},
{
"code":"46",
"year":"2016",
"landUse":"其他商服用地",
"value":10
},
{
"code":"42",
"year":"2016",
"landUse":"经济适用住房用地",
"value":27
},
{
"code":"46",
"year":"2016",
"landUse":"经济适用住房用地",
"value":1
},
{
"code":"35",
"year":"2016",
"landUse":"高档住宅用地",
"value":1
},
{
"code":"46",
"year":"2016",
"landUse":"其他普通商品住房用地",
"value":105
},
{
"code":"64",
"year":"2016",
"landUse":"工业用地",
"value":305
},
{
"code":"52",
"year":"2016",
"landUse":"公共租赁住房用地",
"value":4
},
{
"code":"22",
"year":"2016",
"landUse":"商务金融用地",
"value":166
},
{
"code":"53",
"year":"2016",
"landUse":"商务金融用地",
"value":128
},
{
"code":"11",
"year":"2016",
"landUse":"中低价位、中小套型普通商品住房用地",
"value":9
},
{
"code":"32",
"year":"2016",
"landUse":"经济适用住房用地",
"value":86
},
{
"code":"41",
"year":"2016",
"landUse":"其他普通商品住房用地",
"value":1066
},
{
"code":"22",
"year":"2016",
"landUse":"采矿用地",
"value":4
},
{
"code":"23",
"year":"2016",
"landUse":"中低价位、中小套型普通商品住房用地",
"value":58
},
{
"code":"14",
"year":"2016",
"landUse":"其他普通商品住房用地",
"value":406
},
{
"code":"36",
"year":"2016",
"landUse":"工业用地",
"value":1031
},
{
"code":"23",
"year":"2016",
"landUse":"廉租住房用地",
"value":4
},
{
"code":"50",
"year":"2016",
"landUse":"商务金融用地",
"value":9
},
{
"code":"61",
"year":"2016",
"landUse":"其他普通商品住房用地",
"value":569
},
{
"code":"21",
"year":"2016",
"landUse":"中低价位、中小套型普通商品住房用地",
"value":163
},
{
"code":"61",
"year":"2016",
"landUse":"中低价位、中小套型普通商品住房用地",
"value":95
},
{
"code":"65",
"year":"2016",
"landUse":"仓储用地",
"value":57
},
{
"code":"15",
"year":"2016",
"landUse":"其他商服用地",
"value":634
},
{
"code":"53",
"year":"2016",
"landUse":"经济适用住房用地",
"value":33
},
{
"code":"11",
"year":"2016",
"landUse":"商务金融用地",
"value":32
},
{
"code":"62",
"year":"2016",
"landUse":"仓储用地",
"value":59
},
{
"code":"61",
"year":"2016",
"landUse":"商务金融用地",
"value":53
},
{
"code":"21",
"year":"2016",
"landUse":"商务金融用地",
"value":258
},
{
"code":"34",
"year":"2016",
"landUse":"采矿用地",
"value":1
},
{
"code":"15",
"year":"2016",
"landUse":"住宿餐饮用地",
"value":244
},
{
"code":"51",
"year":"2016",
"landUse":"经济适用住房用地",
"value":40
},
{
"code":"33",
"year":"2016",
"landUse":"仓储用地",
"value":115
},
{
"code":"41",
"year":"2016",
"landUse":"仓储用地",
"value":99
},
{
"code":"42",
"year":"2016",
"landUse":"其他普通商品住房用地",
"value":2143
},
{
"code":"53",
"year":"2016",
"landUse":"其他商服用地",
"value":430
},
{
"code":"31",
"year":"2016",
"landUse":"住宿餐饮用地",
"value":2
},
{
"code":"13",
"year":"2016",
"landUse":"采矿用地",
"value":2
},
{
"code":"36",
"year":"2016",
"landUse":"公共租赁住房用地",
"value":6
},
{
"code":"12",
"year":"2016",
"landUse":"其他普通商品住房用地",
"value":157
},
{
"code":"13",
"year":"2016",
"landUse":"廉租住房用地",
"value":1
},
{
"code":"62",
"year":"2016",
"landUse":"住宿餐饮用地",
"value":71
},
{
"code":"46",
"year":"2016",
"landUse":"商务金融用地",
"value":13
},
{
"code":"13",
"year":"2016",
"landUse":"商务金融用地",
"value":231
},
{
"code":"64",
"year":"2016",
"landUse":"采矿用地",
"value":1
},
{
"code":"62",
"year":"2016",
"landUse":"廉租住房用地",
"value":1
},
{
"code":"43",
"year":"2016",
"landUse":"中低价位、中小套型普通商品住房用地",
"value":381
},
{
"code":"36",
"year":"2016",
"landUse":"仓储用地",
"value":54
},
{
"code":"53",
"year":"2016",
"landUse":"高档住宅用地",
"value":10
},
{
"code":"52",
"year":"2016",
"landUse":"经济适用住房用地",
"value":33
},
{
"code":"43",
"year":"2016",
"landUse":"工业用地",
"value":758
},
{
"code":"53",
"year":"2016",
"landUse":"公共租赁住房用地",
"value":16
},
{
"code":"61",
"year":"2016",
"landUse":"公共租赁住房用地",
"value":9
},
{
"code":"42",
"year":"2016",
"landUse":"其他商服用地",
"value":524
},
{
"code":"50",
"year":"2016",
"landUse":"公共租赁住房用地",
"value":3
},
{
"code":"62",
"year":"2016",
"landUse":"其他商服用地",
"value":253
},
{
"code":"43",
"year":"2016",
"landUse":"其他普通商品住房用地",
"value":4116
},
{
"code":"21",
"year":"2016",
"landUse":"工业用地",
"value":654
},
{
"code":"32",
"year":"2016",
"landUse":"采矿用地",
"value":1
},
{
"code":"64",
"year":"2016",
"landUse":"仓储用地",
"value":12
},
{
"code":"61",
"year":"2016",
"landUse":"仓储用地",
"value":59
},
{
"code":"50",
"year":"2016",
"landUse":"中低价位、中小套型普通商品住房用地",
"value":59
},
{
"code":"50",
"year":"2016",
"landUse":"其他商服用地",
"value":92
},
{
"code":"53",
"year":"2016",
"landUse":"中低价位、中小套型普通商品住房用地",
"value":251
},
{
"code":"37",
"year":"2016",
"landUse":"其他普通商品住房用地",
"value":1140
},
{
"code":"37",
"year":"2016",
"landUse":"住宿餐饮用地",
"value":63
},
{
"code":"15",
"year":"2016",
"landUse":"中低价位、中小套型普通商品住房用地",
"value":141
},
{
"code":"14",
"year":"2016",
"landUse":"采矿用地",
"value":5
},
{
"code":"14",
"year":"2016",
"landUse":"中低价位、中小套型普通商品住房用地",
"value":44
},
{
"code":"65",
"year":"2016",
"landUse":"商务金融用地",
"value":47
},
{
"code":"15",
"year":"2016",
"landUse":"公共租赁住房用地",
"value":6
},
{
"code":"22",
"year":"2016",
"landUse":"经济适用住房用地",
"value":18
},
{
"code":"34",
"year":"2016",
"landUse":"廉租住房用地",
"value":3
},
{
"code":"65",
"year":"2016",
"landUse":"其他普通商品住房用地",
"value":204
},
{
"code":"61",
"year":"2016",
"landUse":"住宿餐饮用地",
"value":37
},
{
"code":"23",
"year":"2016",
"landUse":"工业用地",
"value":323
},
{
"code":"23",
"year":"2016",
"landUse":"公共租赁住房用地",
"value":1
},
{
"code":"63",
"year":"2016",
"landUse":"工业用地",
"value":95
},
{
"code":"63",
"year":"2016",
"landUse":"住宿餐饮用地",
"value":34
},
{
"code":"52",
"year":"2016",
"landUse":"其他商服用地",
"value":341
},
{
"code":"32",
"year":"2016",
"landUse":"高档住宅用地",
"value":1
},
{
"code":"43",
"year":"2016",
"landUse":"住宿餐饮用地",
"value":31
},
{
"code":"51",
"year":"2016",
"landUse":"住宿餐饮用地",
"value":46
},
{
"code":"42",
"year":"2016",
"landUse":"公共租赁住房用地",
"value":32
},
{
"code":"21",
"year":"2016",
"landUse":"采矿用地",
"value":2
},
{
"code":"65",
"year":"2016",
"landUse":"采矿用地",
"value":5
},
{
"code":"14",
"year":"2016",
"landUse":"商务金融用地",
"value":126
},
{
"code":"45",
"year":"2016",
"landUse":"商务金融用地",
"value":49
},
{
"code":"43",
"year":"2016",
"landUse":"采矿用地",
"value":2
},
{
"code":"63",
"year":"2016",
"landUse":"其他普通商品住房用地",
"value":51
},
{
"code":"61",
"year":"2016",
"landUse":"工业用地",
"value":532
},
{
"code":"34",
"year":"2016",
"landUse":"公共租赁住房用地",
"value":17
},
{
"code":"46",
"year":"2016",
"landUse":"仓储用地",
"value":23
},
{
"code":"53",
"year":"2016",
"landUse":"其他普通商品住房用地",
"value":1831
},
{
"code":"53",
"year":"2016",
"landUse":"廉租住房用地",
"value":7
},
{
"code":"51",
"year":"2016",
"landUse":"廉租住房用地",
"value":13
},
{
"code":"45",
"year":"2016",
"landUse":"其他商服用地",
"value":87
},
{
"code":"21",
"year":"2016",
"landUse":"仓储用地",
"value":83
},
{
"code":"63",
"year":"2016",
"landUse":"公共租赁住房用地",
"value":1
},
{
"code":"62",
"year":"2016",
"landUse":"其他普通商品住房用地",
"value":263
},
{
"code":"43",
"year":"2016",
"landUse":"其他商服用地",
"value":675
},
{
"code":"21",
"year":"2016",
"landUse":"其他商服用地",
"value":442
},
{
"code":"23",
"year":"2016",
"landUse":"经济适用住房用地",
"value":15
},
{
"code":"22",
"year":"2016",
"landUse":"公共租赁住房用地",
"value":4
},
{
"code":"15",
"year":"2016",
"landUse":"其他普通商品住房用地",
"value":463
},
{
"code":"12",
"year":"2016",
"landUse":"其他商服用地",
"value":234
},
{
"code":"11",
"year":"2016",
"landUse":"其他普通商品住房用地",
"value":21
},
{
"code":"35",
"year":"2016",
"landUse":"公共租赁住房用地",
"value":1
},
{
"code":"44",
"year":"2016",
"landUse":"商务金融用地",
"value":82
},
{
"code":"65",
"year":"2016",
"landUse":"工业用地",
"value":637
},
{
"code":"65",
"year":"2016",
"landUse":"高档住宅用地",
"value":18
},
{
"code":"45",
"year":"2016",
"landUse":"经济适用住房用地",
"value":24
},
{
"code":"61",
"year":"2016",
"landUse":"高档住宅用地",
"value":7
},
{
"code":"22",
"year":"2016",
"landUse":"工业用地",
"value":613
},
{
"code":"65",
"year":"2016",
"landUse":"住宿餐饮用地",
"value":46
},
{
"code":"21",
"year":"2016",
"landUse":"住宿餐饮用地",
"value":38
},
{
"code":"41",
"year":"2016",
"landUse":"商务金融用地",
"value":155
},
{
"code":"13",
"year":"2016",
"landUse":"仓储用地",
"value":92
},
{
"code":"12",
"year":"2016",
"landUse":"住宅用地",
"value":1
},
{
"code":"15",
"year":"2016",
"landUse":"廉租住房用地",
"value":9
},
{
"code":"51",
"year":"2016",
"landUse":"商务金融用地",
"value":98
},
{
"code":"35",
"year":"2016",
"landUse":"工业用地",
"value":819
},
{
"code":"62",
"year":"2016",
"landUse":"公共租赁住房用地",
"value":1
},
{
"code":"65",
"year":"2016",
"landUse":"公共租赁住房用地",
"value":10
},
{
"code":"61",
"year":"2016",
"landUse":"廉租住房用地",
"value":14
},
{
"code":"31",
"year":"2016",
"landUse":"中低价位、中小套型普通商品住房用地",
"value":40
},
{
"code":"42",
"year":"2016",
"landUse":"高档住宅用地",
"value":1
},
{
"code":"63",
"year":"2016",
"landUse":"中低价位、中小套型普通商品住房用地",
"value":9
},
{
"code":"12",
"year":"2016",
"landUse":"工业用地",
"value":129
},
{
"code":"33",
"year":"2016",
"landUse":"住宿餐饮用地",
"value":118
},
{
"code":"64",
"year":"2016",
"landUse":"商务金融用地",
"value":18
},
{
"code":"31",
"year":"2016",
"landUse":"商务金融用地",
"value":14
},
{
"code":"34",
"year":"2016",
"landUse":"工业用地",
"value":1774
},
{
"code":"41",
"year":"2016",
"landUse":"经济适用住房用地",
"value":43
},
{
"code":"43",
"year":"2016",
"landUse":"商务金融用地",
"value":270
},
{
"code":"14",
"year":"2016",
"landUse":"工业用地",
"value":333
},
{
"code":"50",
"year":"2016",
"landUse":"廉租住房用地",
"value":11
},
{
"code":"62",
"year":"2016",
"landUse":"中低价位、中小套型普通商品住房用地",
"value":86
},
{
"code":"37",
"year":"2016",
"landUse":"工业用地",
"value":2326
},
{
"code":"41",
"year":"2016",
"landUse":"其他商服用地",
"value":360
},
{
"code":"21",
"year":"2016",
"landUse":"经济适用住房用地",
"value":1
},
{
"code":"22",
"year":"2016",
"landUse":"中低价位、中小套型普通商品住房用地",
"value":163
},
{
"code":"14",
"year":"2016",
"landUse":"其他商服用地",
"value":285
},
{
"code":"51",
"year":"2016",
"landUse":"仓储用地",
"value":72
},
{
"code":"15",
"year":"2016",
"landUse":"商务金融用地",
"value":78
},
{
"code":"52",
"year":"2016",
"landUse":"住宿餐饮用地",
"value":23
},
{
"code":"13",
"year":"2016",
"landUse":"住宿餐饮用地",
"value":68
},
{
"code":"13",
"year":"2016",
"landUse":"其他商服用地",
"value":498
},
{
"code":"11",
"year":"2016",
"landUse":"其他商服用地",
"value":29
},
{
"code":"12",
"year":"2016",
"landUse":"仓储用地",
"value":8
},
{
"code":"35",
"year":"2016",
"landUse":"中低价位、中小套型普通商品住房用地",
"value":113
},
{
"code":"50",
"year":"2016",
"landUse":"其他普通商品住房用地",
"value":262
},
{
"code":"63",
"year":"2016",
"landUse":"采矿用地",
"value":3
},
{
"code":"44",
"year":"2016",
"landUse":"其他普通商品住房用地",
"value":4742
},
{
"code":"21",
"year":"2016",
"landUse":"其他普通商品住房用地",
"value":238
},
{
"code":"61",
"year":"2016",
"landUse":"采矿用地",
"value":16
},
{
"code":"37",
"year":"2016",
"landUse":"其他商服用地",
"value":485
},
{
"code":"34",
"year":"2016",
"landUse":"经济适用住房用地",
"value":79
},
{
"code":"42",
"year":"2016",
"landUse":"住宅用地",
"value":1
},
{
"code":"36",
"year":"2016",
"landUse":"商务金融用地",
"value":61
},
{
"code":"43",
"year":"2016",
"landUse":"仓储用地",
"value":81
},
{
"code":"44",
"year":"2016",
"landUse":"中低价位、中小套型普通商品住房用地",
"value":525
},
{
"code":"31",
"year":"2016",
"landUse":"经济适用住房用地",
"value":1
},
{
"code":"34",
"year":"2016",
"landUse":"住宿餐饮用地",
"value":24
},
{
"code":"63",
"year":"2016",
"landUse":"商务金融用地",
"value":23
},
{
"code":"52",
"year":"2016",
"landUse":"中低价位、中小套型普通商品住房用地",
"value":428
},
{
"code":"52",
"year":"2016",
"landUse":"廉租住房用地",
"value":2
},
{
"code":"45",
"year":"2016",
"landUse":"公共租赁住房用地",
"value":8
},
{
"code":"43",
"year":"2016",
"landUse":"经济适用住房用地",
"value":70
},
{
"code":"35",
"year":"2016",
"landUse":"住宿餐饮用地",
"value":26
},
{
"code":"22",
"year":"2016",
"landUse":"廉租住房用地",
"value":4
},
{
"code":"22",
"year":"2016",
"landUse":"其他普通商品住房用地",
"value":349
},
{
"code":"34",
"year":"2016",
"landUse":"其他普通商品住房用地",
"value":728
},
{
"code":"51",
"year":"2016",
"landUse":"公共租赁住房用地",
"value":6
},
{
"code":"52",
"year":"2016",
"landUse":"商务金融用地",
"value":53
},
{
"code":"13",
"year":"2016",
"landUse":"其他普通商品住房用地",
"value":1377
},
{
"code":"64",
"year":"2016",
"landUse":"住宿餐饮用地",
"value":6
},
{
"code":"42",
"year":"2016",
"landUse":"仓储用地",
"value":112
},
{
"code":"32",
"year":"2016",
"landUse":"工业用地",
"value":3373
},
{
"code":"50",
"year":"2016",
"landUse":"工业用地",
"value":387
},
{
"code":"34",
"year":"2016",
"landUse":"高档住宅用地",
"value":3
},
{
"code":"12",
"year":"2016",
"landUse":"住宿餐饮用地",
"value":2
},
{
"code":"15",
"year":"2016",
"landUse":"仓储用地",
"value":69
},
{
"code":"46",
"year":"2016",
"landUse":"住宿餐饮用地",
"value":43
},
{
"code":"63",
"year":"2016",
"landUse":"其他商服用地",
"value":185
},
{
"code":"65",
"year":"2016",
"landUse":"经济适用住房用地",
"value":32
},
{
"code":"23",
"year":"2016",
"landUse":"其他普通商品住房用地",
"value":251
},
{
"code":"34",
"year":"2016",
"landUse":"中低价位、中小套型普通商品住房用地",
"value":198
},
{
"code":"11",
"year":"2016",
"landUse":"仓储用地",
"value":4
},
{
"code":"36",
"year":"2016",
"landUse":"中低价位、中小套型普通商品住房用地",
"value":135
},
{
"code":"44",
"year":"2016",
"landUse":"住宿餐饮用地",
"value":29
},
{
"code":"42",
"year":"2016",
"landUse":"中低价位、中小套型普通商品住房用地",
"value":750
},
{
"code":"63",
"year":"2016",
"landUse":"经济适用住房用地",
"value":1
},
{
"code":"33",
"year":"2016",
"landUse":"工业用地",
"value":2094
},
{
"code":"22",
"year":"2016",
"landUse":"住宿餐饮用地",
"value":45
},
{
"code":"15",
"year":"2016",
"landUse":"采矿用地",
"value":9
},
{
"code":"52",
"year":"2016",
"landUse":"仓储用地",
"value":52
},
{
"code":"41",
"year":"2016",
"landUse":"工业用地",
"value":1320
},
{
"code":"11",
"year":"2016",
"landUse":"公共租赁住房用地",
"value":1
},
{
"code":"34",
"year":"2016",
"landUse":"仓储用地",
"value":71
},
{
"code":"50",
"year":"2016",
"landUse":"仓储用地",
"value":49
},
{
"code":"33",
"year":"2016",
"landUse":"商务金融用地",
"value":85
},
{
"code":"62",
"year":"2016",
"landUse":"经济适用住房用地",
"value":2
},
{
"code":"43",
"year":"2016",
"landUse":"廉租住房用地",
"value":8
},
{
"code":"53",
"year":"2016",
"landUse":"住宿餐饮用地",
"value":65
},
{
"code":"53",
"year":"2016",
"landUse":"采矿用地",
"value":1
},
{
"code":"41",
"year":"2016",
"landUse":"住宿餐饮用地",
"value":16
},
{
"code":"33",
"year":"2016",
"landUse":"其他商服用地",
"value":333
},
{
"code":"12",
"year":"2016",
"landUse":"商务金融用地",
"value":21
},
{
"code":"15",
"year":"2016",
"landUse":"经济适用住房用地",
"value":21
},
{
"code":"13",
"year":"2016",
"landUse":"中低价位、中小套型普通商品住房用地",
"value":293
},
{
"code":"44",
"year":"2016",
"landUse":"经济适用住房用地",
"value":4
},
{
"code":"42",
"year":"2016",
"landUse":"住宿餐饮用地",
"value":86
},
{
"code":"51",
"year":"2016",
"landUse":"工业用地",
"value":860
},
{
"code":"36",
"year":"2016",
"landUse":"经济适用住房用地",
"value":1
},
{
"code":"45",
"year":"2016",
"landUse":"住宿餐饮用地",
"value":28
},
{
"code":"32",
"year":"2016",
"landUse":"仓储用地",
"value":169
},
{
"code":"32",
"year":"2016",
"landUse":"中低价位、中小套型普通商品住房用地",
"value":802
},
{
"code":"64",
"year":"2016",
"landUse":"其他商服用地",
"value":141
},
{
"code":"42",
"year":"2016",
"landUse":"工业用地",
"value":1563
},
{
"code":"22",
"year":"2016",
"landUse":"其他商服用地",
"value":590
},
{
"code":"14",
"year":"2016",
"landUse":"经济适用住房用地",
"value":21
},
{
"code":"64",
"year":"2016",
"landUse":"其他普通商品住房用地",
"value":64
},
{
"code":"32",
"year":"2016",
"landUse":"其他商服用地",
"value":728
},
{
"code":"62",
"year":"2016",
"landUse":"工业用地",
"value":339
},
{
"code":"22",
"year":"2016",
"landUse":"仓储用地",
"value":120
},
{
"code":"50",
"year":"2016",
"landUse":"经济适用住房用地",
"value":44
},
{
"code":"33",
"year":"2016",
"landUse":"经济适用住房用地",
"value":248
},
{
"code":"15",
"year":"2016",
"landUse":"工业用地",
"value":554
},
{
"code":"33",
"year":"2016",
"landUse":"高档住宅用地",
"value":16
},
{
"code":"35",
"year":"2016",
"landUse":"其他普通商品住房用地",
"value":201
},
{
"code":"31",
"year":"2016",
"landUse":"公共租赁住房用地",
"value":2
},
{
"code":"35",
"year":"2016",
"landUse":"其他商服用地",
"value":42
},
{
"code":"23",
"year":"2016",
"landUse":"仓储用地",
"value":43
},
{
"code":"34",
"year":"2016",
"landUse":"其他商服用地",
"value":423
},
{
"code":"45",
"year":"2016",
"landUse":"仓储用地",
"value":47
},
{
"code":"35",
"year":"2016",
"landUse":"采矿用地",
"value":1
},
{
"code":"53",
"year":"2016",
"landUse":"仓储用地",
"value":53
},
{
"code":"51",
"year":"2016",
"landUse":"采矿用地",
"value":15
},
{
"code":"35",
"year":"2016",
"landUse":"商务金融用地",
"value":51
},
{
"code":"36",
"year":"2016",
"landUse":"采矿用地",
"value":3
},
{
"code":"43",
"year":"2016",
"landUse":"公共租赁住房用地",
"value":9
},
{
"code":"11",
"year":"2016",
"landUse":"工业用地",
"value":23
},
{
"code":"61",
"year":"2016",
"landUse":"经济适用住房用地",
"value":20
},
{
"code":"15",
"year":"2016",
"landUse":"高档住宅用地",
"value":2
},
{
"code":"41",
"year":"2016",
"landUse":"廉租住房用地",
"value":3
},
{
"code":"32",
"year":"2016",
"landUse":"住宿餐饮用地",
"value":45
},
{
"code":"52",
"year":"2016",
"landUse":"工业用地",
"value":298
},
{
"code":"37",
"year":"2016",
"landUse":"采矿用地",
"value":20
},
{
"code":"34",
"year":"2016",
"landUse":"商务金融用地",
"value":39
},
{
"code":"14",
"year":"2016",
"landUse":"住宿餐饮用地",
"value":31
},
{
"code":"44",
"year":"2016",
"landUse":"高档住宅用地",
"value":2
},
{
"code":"31",
"year":"2016",
"landUse":"工业用地",
"value":55
},
{
"code":"32",
"year":"2016",
"landUse":"其他普通商品住房用地",
"value":756
},
{
"code":"45",
"year":"2016",
"landUse":"工业用地",
"value":472
},
{
"code":"31",
"year":"2016",
"landUse":"其他普通商品住房用地",
"value":34
},
{
"code":"45",
"year":"2016",
"landUse":"其他普通商品住房用地",
"value":2151
},
{
"code":"45",
"year":"2016",
"landUse":"中低价位、中小套型普通商品住房用地",
"value":607
},
{
"code":"14",
"year":"2016",
"landUse":"廉租住房用地",
"value":2
},
{
"code":"50",
"year":"2016",
"landUse":"住宿餐饮用地",
"value":5
},
{
"code":"37",
"year":"2016",
"landUse":"中低价位、中小套型普通商品住房用地",
"value":865
},
{
"code":"37",
"year":"2016",
"landUse":"商务金融用地",
"value":398
},
{
"code":"31",
"year":"2016",
"landUse":"仓储用地",
"value":2
},
{
"code":"42",
"year":"2016",
"landUse":"商务金融用地",
"value":64
},
{
"code":"62",
"year":"2016",
"landUse":"商务金融用地",
"value":55
},
{
"code":"33",
"year":"2016",
"landUse":"中低价位、中小套型普通商品住房用地",
"value":1288
},
{
"code":"51",
"year":"2016",
"landUse":"其他商服用地",
"value":497
},
{
"code":"44",
"year":"2016",
"landUse":"其他商服用地",
"value":247
},
{
"code":"50",
"year":"2017",
"landUse":"公共设施用地",
"value":28
},
{
"code":"37",
"year":"2017",
"landUse":"军事设施用地",
"value":1
},
{
"code":"12",
"year":"2017",
"landUse":"科教用地",
"value":1
},
{
"code":"15",
"year":"2017",
"landUse":"住宿餐饮用地",
"value":179
},
{
"code":"64",
"year":"2017",
"landUse":"其他普通商品住房用地",
"value":91
},
{
"code":"50",
"year":"2017",
"landUse":"经济适用住房用地",
"value":15
},
{
"code":"37",
"year":"2017",
"landUse":"殡葬用地",
"value":2
},
{
"code":"23",
"year":"2017",
"landUse":"经济适用住房用地",
"value":5
},
{
"code":"63",
"year":"2017",
"landUse":"住宿餐饮用地",
"value":36
},
{
"code":"37",
"year":"2017",
"landUse":"其他商服用地",
"value":529
},
{
"code":"42",
"year":"2017",
"landUse":"公路用地",
"value":2
},
{
"code":"53",
"year":"2017",
"landUse":"公园与绿地",
"value":2
},
{
"code":"50",
"year":"2017",
"landUse":"住宿餐饮用地",
"value":4
},
{
"code":"44",
"year":"2017",
"landUse":"科教用地",
"value":7
},
{
"code":"53",
"year":"2017",
"landUse":"工业用地",
"value":402
},
{
"code":"14",
"year":"2017",
"landUse":"公路用地",
"value":1
},
{
"code":"53",
"year":"2017",
"landUse":"殡葬用地",
"value":2
},
{
"code":"65",
"year":"2017",
"landUse":"廉租住房用地",
"value":2
},
{
"code":"62",
"year":"2017",
"landUse":"批发零售用地",
"value":5
},
{
"code":"32",
"year":"2017",
"landUse":"中低价位、中小套型普通商品住房用地",
"value":1079
},
{
"code":"14",
"year":"2017",
"landUse":"公园与绿地",
"value":1
},
{
"code":"51",
"year":"2017",
"landUse":"街巷用地",
"value":9
},
{
"code":"11",
"year":"2017",
"landUse":"经济适用住房用地",
"value":1
},
{
"code":"32",
"year":"2017",
"landUse":"经济适用住房用地",
"value":132
},
{
"code":"14",
"year":"2017",
"landUse":"其他普通商品住房用地",
"value":492
},
{
"code":"15",
"year":"2017",
"landUse":"经济适用住房用地",
"value":65
},
{
"code":"33",
"year":"2017",
"landUse":"医卫慈善用地",
"value":9
},
{
"code":"36",
"year":"2017",
"landUse":"机场用地",
"value":1
},
{
"code":"23",
"year":"2017",
"landUse":"其他普通商品住房用地",
"value":379
},
{
"code":"61",
"year":"2017",
"landUse":"军事设施用地",
"value":1
},
{
"code":"12",
"year":"2017",
"landUse":"仓储用地",
"value":14
},
{
"code":"11",
"year":"2017",
"landUse":"其他商服用地",
"value":44
},
{
"code":"22",
"year":"2017",
"landUse":"其他商服用地",
"value":798
},
{
"code":"45",
"year":"2017",
"landUse":"军事设施用地",
"value":2
},
{
"code":"35",
"year":"2017",
"landUse":"商务金融用地",
"value":33
},
{
"code":"53",
"year":"2017",
"landUse":"公路用地",
"value":4
},
{
"code":"33",
"year":"2017",
"landUse":"文体娱乐用地",
"value":11
},
{
"code":"23",
"year":"2017",
"landUse":"文体娱乐用地",
"value":2
},
{
"code":"14",
"year":"2017",
"landUse":"住宿餐饮用地",
"value":14
},
{
"code":"36",
"year":"2017",
"landUse":"公共设施用地",
"value":7
},
{
"code":"36",
"year":"2017",
"landUse":"中低价位、中小套型普通商品住房用地",
"value":116
},
{
"code":"61",
"year":"2017",
"landUse":"住宿餐饮用地",
"value":62
},
{
"code":"12",
"year":"2017",
"landUse":"商务金融用地",
"value":15
},
{
"code":"61",
"year":"2017",
"landUse":"监教场所用地",
"value":1
},
{
"code":"34",
"year":"2017",
"landUse":"采矿用地",
"value":3
},
{
"code":"35",
"year":"2017",
"landUse":"工业用地",
"value":937
},
{
"code":"32",
"year":"2017",
"landUse":"公共租赁住房用地",
"value":3
},
{
"code":"45",
"year":"2017",
"landUse":"公路用地",
"value":5
},
{
"code":"13",
"year":"2017",
"landUse":"中低价位、中小套型普通商品住房用地",
"value":250
},
{
"code":"42",
"year":"2017",
"landUse":"街巷用地",
"value":2
},
{
"code":"53",
"year":"2017",
"landUse":"科教用地",
"value":13
},
{
"code":"35",
"year":"2017",
"landUse":"医卫慈善用地",
"value":3
},
{
"code":"15",
"year":"2017",
"landUse":"其他商服用地",
"value":772
},
{
"code":"50",
"year":"2017",
"landUse":"公共管理与公共服务用地",
"value":1
},
{
"code":"22",
"year":"2017",
"landUse":"中低价位、中小套型普通商品住房用地",
"value":284
},
{
"code":"44",
"year":"2017",
"landUse":"中低价位、中小套型普通商品住房用地",
"value":619
},
{
"code":"41",
"year":"2017",
"landUse":"监教场所用地",
"value":1
},
{
"code":"22",
"year":"2017",
"landUse":"其他普通商品住房用地",
"value":499
},
{
"code":"14",
"year":"2017",
"landUse":"医卫慈善用地",
"value":1
},
{
"code":"36",
"year":"2017",
"landUse":"殡葬用地",
"value":1
},
{
"code":"33",
"year":"2017",
"landUse":"科教用地",
"value":30
},
{
"code":"11",
"year":"2017",
"landUse":"商务金融用地",
"value":36
},
{
"code":"36",
"year":"2017",
"landUse":"科教用地",
"value":7
},
{
"code":"65",
"year":"2017",
"landUse":"其他商服用地",
"value":484
},
{
"code":"51",
"year":"2017",
"landUse":"采矿用地",
"value":4
},
{
"code":"35",
"year":"2017",
"landUse":"空闲地",
"value":1
},
{
"code":"32",
"year":"2017",
"landUse":"工业用地",
"value":3947
},
{
"code":"64",
"year":"2017",
"landUse":"商务金融用地",
"value":8
},
{
"code":"14",
"year":"2017",
"landUse":"公共设施用地",
"value":5
},
{
"code":"42",
"year":"2017",
"landUse":"仓储用地",
"value":82
},
{
"code":"31",
"year":"2017",
"landUse":"医卫慈善用地",
"value":2
},
{
"code":"41",
"year":"2017",
"landUse":"商务金融用地",
"value":239
},
{
"code":"34",
"year":"2017",
"landUse":"机关团体用地",
"value":1
},
{
"code":"33",
"year":"2017",
"landUse":"仓储用地",
"value":103
},
{
"code":"62",
"year":"2017",
"landUse":"仓储用地",
"value":34
},
{
"code":"41",
"year":"2017",
"landUse":"经济适用住房用地",
"value":26
},
{
"code":"37",
"year":"2017",
"landUse":"监教场所用地",
"value":4
},
{
"code":"62",
"year":"2017",
"landUse":"科教用地",
"value":1
},
{
"code":"35",
"year":"2017",
"landUse":"高档住宅用地",
"value":7
},
{
"code":"64",
"year":"2017",
"landUse":"批发零售用地",
"value":8
},
{
"code":"45",
"year":"2017",
"landUse":"机关团体用地",
"value":9
},
{
"code":"64",
"year":"2017",
"landUse":"公共设施用地",
"value":3
},
{
"code":"61",
"year":"2017",
"landUse":"商务金融用地",
"value":39
},
{
"code":"53",
"year":"2017",
"landUse":"采矿用地",
"value":2
},
{
"code":"35",
"year":"2017",
"landUse":"文体娱乐用地",
"value":2
},
{
"code":"34",
"year":"2017",
"landUse":"工业用地",
"value":1947
},
{
"code":"51",
"year":"2017",
"landUse":"水域及水利设施用地",
"value":1
},
{
"code":"46",
"year":"2017",
"landUse":"科教用地",
"value":4
},
{
"code":"51",
"year":"2017",
"landUse":"住宅用地",
"value":1
},
{
"code":"22",
"year":"2017",
"landUse":"医卫慈善用地",
"value":2
},
{
"code":"32",
"year":"2017",
"landUse":"商务金融用地",
"value":123
},
{
"code":"52",
"year":"2017",
"landUse":"公路用地",
"value":1
},
{
"code":"53",
"year":"2017",
"landUse":"批发零售用地",
"value":40
},
{
"code":"42",
"year":"2017",
"landUse":"住宅用地",
"value":2
},
{
"code":"32",
"year":"2017",
"landUse":"住宿餐饮用地",
"value":39
},
{
"code":"64",
"year":"2017",
"landUse":"其他商服用地",
"value":248
},
{
"code":"11",
"year":"2017",
"landUse":"科教用地",
"value":1
},
{
"code":"42",
"year":"2017",
"landUse":"科教用地",
"value":10
},
{
"code":"11",
"year":"2017",
"landUse":"中低价位、中小套型普通商品住房用地",
"value":33
},
{
"code":"13",
"year":"2017",
"landUse":"批发零售用地",
"value":21
},
{
"code":"65",
"year":"2017",
"landUse":"文体娱乐用地",
"value":1
},
{
"code":"34",
"year":"2017",
"landUse":"科教用地",
"value":15
},
{
"code":"37",
"year":"2017",
"landUse":"港口码头用地",
"value":4
},
{
"code":"36",
"year":"2017",
"landUse":"批发零售用地",
"value":7
},
{
"code":"32",
"year":"2017",
"landUse":"廉租住房用地",
"value":1
},
{
"code":"35",
"year":"2017",
"landUse":"其他商服用地",
"value":37
},
{
"code":"52",
"year":"2017",
"landUse":"文体娱乐用地",
"value":1
},
{
"code":"44",
"year":"2017",
"landUse":"公共设施用地",
"value":33
},
{
"code":"34",
"year":"2017",
"landUse":"风景名胜设施用地",
"value":1
},
{
"code":"65",
"year":"2017",
"landUse":"公共设施用地",
"value":14
},
{
"code":"21",
"year":"2017",
"landUse":"医卫慈善用地",
"value":4
},
{
"code":"53",
"year":"2017",
"landUse":"其他商服用地",
"value":530
},
{
"code":"64",
"year":"2017",
"landUse":"科教用地",
"value":1
},
{
"code":"53",
"year":"2017",
"landUse":"街巷用地",
"value":6
},
{
"code":"34",
"year":"2017",
"landUse":"公共设施用地",
"value":48
},
{
"code":"21",
"year":"2017",
"landUse":"高档住宅用地",
"value":1
},
{
"code":"52",
"year":"2017",
"landUse":"住宿餐饮用地",
"value":51
},
{
"code":"44",
"year":"2017",
"landUse":"医卫慈善用地",
"value":2
},
{
"code":"63",
"year":"2017",
"landUse":"中低价位、中小套型普通商品住房用地",
"value":3
},
{
"code":"64",
"year":"2017",
"landUse":"工业用地",
"value":319
},
{
"code":"21",
"year":"2017",
"landUse":"商务金融用地",
"value":124
},
{
"code":"45",
"year":"2017",
"landUse":"殡葬用地",
"value":1
},
{
"code":"32",
"year":"2017",
"landUse":"仓储用地",
"value":189
},
{
"code":"33",
"year":"2017",
"landUse":"批发零售用地",
"value":15
},
{
"code":"23",
"year":"2017",
"landUse":"其他商服用地",
"value":370
},
{
"code":"37",
"year":"2017",
"landUse":"铁路用地",
"value":1
},
{
"code":"53",
"year":"2017",
"landUse":"公共设施用地",
"value":20
},
{
"code":"44",
"year":"2017",
"landUse":"工业用地",
"value":1654
},
{
"code":"36",
"year":"2017",
"landUse":"公路用地",
"value":2
},
{
"code":"61",
"year":"2017",
"landUse":"科教用地",
"value":5
},
{
"code":"41",
"year":"2017",
"landUse":"宗教用地",
"value":1
},
{
"code":"51",
"year":"2017",
"landUse":"批发零售用地",
"value":29
},
{
"code":"44",
"year":"2017",
"landUse":"住宿餐饮用地",
"value":29
},
{
"code":"11",
"year":"2017",
"landUse":"公共租赁住房用地",
"value":1
},
{
"code":"63",
"year":"2017",
"landUse":"批发零售用地",
"value":26
},
{
"code":"51",
"year":"2017",
"landUse":"其他商服用地",
"value":412
},
{
"code":"44",
"year":"2017",
"landUse":"其他商服用地",
"value":188
},
{
"code":"61",
"year":"2017",
"landUse":"其他商服用地",
"value":278
},
{
"code":"50",
"year":"2017",
"landUse":"公共租赁住房用地",
"value":2
},
{
"code":"53",
"year":"2017",
"landUse":"住宿餐饮用地",
"value":70
},
{
"code":"34",
"year":"2017",
"landUse":"住宿餐饮用地",
"value":29
},
{
"code":"13",
"year":"2017",
"landUse":"经济适用住房用地",
"value":21
},
{
"code":"46",
"year":"2017",
"landUse":"批发零售用地",
"value":1
},
{
"code":"12",
"year":"2017",
"landUse":"其他商服用地",
"value":165
},
{
"code":"15",
"year":"2017",
"landUse":"廉租住房用地",
"value":34
},
{
"code":"43",
"year":"2017",
"landUse":"中低价位、中小套型普通商品住房用地",
"value":145
},
{
"code":"32",
"year":"2017",
"landUse":"新闻出版用地",
"value":1
},
{
"code":"22",
"year":"2017",
"landUse":"仓储用地",
"value":95
},
{
"code":"46",
"year":"2017",
"landUse":"其他商服用地",
"value":1
},
{
"code":"34",
"year":"2017",
"landUse":"公路用地",
"value":5
},
{
"code":"50",
"year":"2017",
"landUse":"其他商服用地",
"value":74
},
{
"code":"12",
"year":"2017",
"landUse":"批发零售用地",
"value":3
},
{
"code":"43",
"year":"2017",
"landUse":"公共租赁住房用地",
"value":14
},
{
"code":"23",
"year":"2017",
"landUse":"公共租赁住房用地",
"value":1
},
{
"code":"36",
"year":"2017",
"landUse":"公共管理与公共服务用地",
"value":2
},
{
"code":"61",
"year":"2017",
"landUse":"文体娱乐用地",
"value":1
},
{
"code":"32",
"year":"2017",
"landUse":"街巷用地",
"value":4
},
{
"code":"63",
"year":"2017",
"landUse":"其他普通商品住房用地",
"value":62
},
{
"code":"41",
"year":"2017",
"landUse":"高档住宅用地",
"value":3
},
{
"code":"21",
"year":"2017",
"landUse":"仓储用地",
"value":67
},
{
"code":"32",
"year":"2017",
"landUse":"科教用地",
"value":17
},
{
"code":"22",
"year":"2017",
"landUse":"街巷用地",
"value":1
},
{
"code":"21",
"year":"2017",
"landUse":"中低价位、中小套型普通商品住房用地",
"value":173
},
{
"code":"13",
"year":"2017",
"landUse":"高档住宅用地",
"value":2
},
{
"code":"13",
"year":"2017",
"landUse":"公路用地",
"value":2
},
{
"code":"13",
"year":"2017",
"landUse":"其他商服用地",
"value":435
},
{
"code":"42",
"year":"2017",
"landUse":"住宿餐饮用地",
"value":51
},
{
"code":"63",
"year":"2017",
"landUse":"工业用地",
"value":93
},
{
"code":"34",
"year":"2017",
"landUse":"医卫慈善用地",
"value":5
},
{
"code":"42",
"year":"2017",
"landUse":"批发零售用地",
"value":35
},
{
"code":"65",
"year":"2017",
"landUse":"监教场所用地",
"value":2
},
{
"code":"43",
"year":"2017",
"landUse":"医卫慈善用地",
"value":8
},
{
"code":"34",
"year":"2017",
"landUse":"公园与绿地",
"value":1
},
{
"code":"35",
"year":"2017",
"landUse":"街巷用地",
"value":8
},
{
"code":"44",
"year":"2017",
"landUse":"文体娱乐用地",
"value":2
},
{
"code":"33",
"year":"2017",
"landUse":"公园与绿地",
"value":25
},
{
"code":"50",
"year":"2017",
"landUse":"港口码头用地",
"value":1
},
{
"code":"50",
"year":"2017",
"landUse":"文体娱乐用地",
"value":1
},
{
"code":"50",
"year":"2017",
"landUse":"仓储用地",
"value":36
},
{
"code":"37",
"year":"2017",
"landUse":"工业用地",
"value":1957
},
{
"code":"51",
"year":"2017",
"landUse":"高档住宅用地",
"value":1
},
{
"code":"31",
"year":"2017",
"landUse":"工业用地",
"value":89
},
{
"code":"62",
"year":"2017",
"landUse":"工业用地",
"value":360
},
{
"code":"36",
"year":"2017",
"landUse":"公共租赁住房用地",
"value":2
},
{
"code":"52",
"year":"2017",
"landUse":"其他商服用地",
"value":358
},
{
"code":"14",
"year":"2017",
"landUse":"工业用地",
"value":400
},
{
"code":"61",
"year":"2017",
"landUse":"廉租住房用地",
"value":2
},
{
"code":"43",
"year":"2017",
"landUse":"公园与绿地",
"value":3
},
{
"code":"51",
"year":"2017",
"landUse":"科教用地",
"value":17
},
{
"code":"22",
"year":"2017",
"landUse":"商务金融用地",
"value":108
},
{
"code":"45",
"year":"2017",
"landUse":"中低价位、中小套型普通商品住房用地",
"value":596
},
{
"code":"35",
"year":"2017",
"landUse":"中低价位、中小套型普通商品住房用地",
"value":158
},
{
"code":"52",
"year":"2017",
"landUse":"中低价位、中小套型普通商品住房用地",
"value":446
},
{
"code":"44",
"year":"2017",
"landUse":"经济适用住房用地",
"value":2
},
{
"code":"15",
"year":"2017",
"landUse":"工业用地",
"value":713
},
{
"code":"33",
"year":"2017",
"landUse":"中低价位、中小套型普通商品住房用地",
"value":2076
},
{
"code":"31",
"year":"2017",
"landUse":"其他商服用地",
"value":28
},
{
"code":"50",
"year":"2017",
"landUse":"公园与绿地",
"value":9
},
{
"code":"61",
"year":"2017",
"landUse":"机关团体用地",
"value":1
},
{
"code":"33",
"year":"2017",
"landUse":"其他商服用地",
"value":293
},
{
"code":"41",
"year":"2017",
"landUse":"仓储用地",
"value":110
},
{
"code":"22",
"year":"2017",
"landUse":"经济适用住房用地",
"value":34
},
{
"code":"37",
"year":"2017",
"landUse":"风景名胜设施用地",
"value":2
},
{
"code":"34",
"year":"2017",
"landUse":"其他普通商品住房用地",
"value":751
},
{
"code":"46",
"year":"2017",
"landUse":"住宿餐饮用地",
"value":21
},
{
"code":"35",
"year":"2017",
"landUse":"住宿餐饮用地",
"value":38
},
{
"code":"42",
"year":"2017",
"landUse":"其他商服用地",
"value":506
},
{
"code":"46",
"year":"2017",
"landUse":"其他普通商品住房用地",
"value":55
},
{
"code":"36",
"year":"2017",
"landUse":"其他商服用地",
"value":391
},
{
"code":"51",
"year":"2017",
"landUse":"文体娱乐用地",
"value":7
},
{
"code":"36",
"year":"2017",
"landUse":"其他普通商品住房用地",
"value":890
},
{
"code":"65",
"year":"2017",
"landUse":"宗教用地",
"value":1
},
{
"code":"45",
"year":"2017",
"landUse":"商务金融用地",
"value":47
},
{
"code":"52",
"year":"2017",
"landUse":"公共租赁住房用地",
"value":9
},
{
"code":"50",
"year":"2017",
"landUse":"商务金融用地",
"value":25
},
{
"code":"37",
"year":"2017",
"landUse":"住宿餐饮用地",
"value":61
},
{
"code":"14",
"year":"2017",
"landUse":"铁路用地",
"value":2
},
{
"code":"36",
"year":"2017",
"landUse":"机关团体用地",
"value":1
},
{
"code":"45",
"year":"2017",
"landUse":"公共租赁住房用地",
"value":2
},
{
"code":"12",
"year":"2017",
"landUse":"机关团体用地",
"value":2
},
{
"code":"51",
"year":"2017",
"landUse":"经济适用住房用地",
"value":65
},
{
"code":"23",
"year":"2017",
"landUse":"科教用地",
"value":1
},
{
"code":"42",
"year":"2017",
"landUse":"机关团体用地",
"value":6
},
{
"code":"34",
"year":"2017",
"landUse":"高档住宅用地",
"value":1
},
{
"code":"45",
"year":"2017",
"landUse":"经济适用住房用地",
"value":28
},
{
"code":"50",
"year":"2017",
"landUse":"街巷用地",
"value":45
},
{
"code":"46",
"year":"2017",
"landUse":"工业用地",
"value":21
},
{
"code":"51",
"year":"2017",
"landUse":"水库水面",
"value":1
},
{
"code":"15",
"year":"2017",
"landUse":"公共租赁住房用地",
"value":1
},
{
"code":"65",
"year":"2017",
"landUse":"公共管理与公共服务用地",
"value":3
},
{
"code":"61",
"year":"2017",
"landUse":"街巷用地",
"value":18
},
{
"code":"62",
"year":"2017",
"landUse":"医卫慈善用地",
"value":1
},
{
"code":"31",
"year":"2017",
"landUse":"中低价位、中小套型普通商品住房用地",
"value":68
},
{
"code":"13",
"year":"2017",
"landUse":"采矿用地",
"value":4
},
{
"code":"23",
"year":"2017",
"landUse":"街巷用地",
"value":5
},
{
"code":"61",
"year":"2017",
"landUse":"经济适用住房用地",
"value":29
},
{
"code":"45",
"year":"2017",
"landUse":"风景名胜设施用地",
"value":1
},
{
"code":"14",
"year":"2017",
"landUse":"其他商服用地",
"value":252
},
{
"code":"13",
"year":"2017",
"landUse":"住宿餐饮用地",
"value":66
},
{
"code":"50",
"year":"2017",
"landUse":"中低价位、中小套型普通商品住房用地",
"value":62
},
{
"code":"61",
"year":"2017",
"landUse":"医卫慈善用地",
"value":2
},
{
"code":"12",
"year":"2017",
"landUse":"工业用地",
"value":121
},
{
"code":"53",
"year":"2017",
"landUse":"机关团体用地",
"value":3
},
{
"code":"35",
"year":"2017",
"landUse":"批发零售用地",
"value":22
},
{
"code":"13",
"year":"2017",
"landUse":"机关团体用地",
"value":2
},
{
"code":"61",
"year":"2017",
"landUse":"公路用地",
"value":12
},
{
"code":"51",
"year":"2017",
"landUse":"军事设施用地",
"value":1
},
{
"code":"43",
"year":"2017",
"landUse":"批发零售用地",
"value":26
},
{
"code":"15",
"year":"2017",
"landUse":"仓储用地",
"value":76
},
{
"code":"13",
"year":"2017",
"landUse":"公共设施用地",
"value":19
},
{
"code":"42",
"year":"2017",
"landUse":"铁路用地",
"value":2
},
{
"code":"21",
"year":"2017",
"landUse":"批发零售用地",
"value":10
},
{
"code":"61",
"year":"2017",
"landUse":"采矿用地",
"value":12
},
{
"code":"53",
"year":"2017",
"landUse":"经济适用住房用地",
"value":14
},
{
"code":"45",
"year":"2017",
"landUse":"港口码头用地",
"value":1
},
{
"code":"65",
"year":"2017",
"landUse":"工业用地",
"value":495
},
{
"code":"12",
"year":"2017",
"landUse":"住宿餐饮用地",
"value":1
},
{
"code":"42",
"year":"2017",
"landUse":"公共租赁住房用地",
"value":6
},
{
"code":"37",
"year":"2017",
"landUse":"科教用地",
"value":36
},
{
"code":"11",
"year":"2017",
"landUse":"住宿餐饮用地",
"value":6
},
{
"code":"42",
"year":"2017",
"landUse":"公园与绿地",
"value":1
},
{
"code":"45",
"year":"2017",
"landUse":"其他普通商品住房用地",
"value":2721
},
{
"code":"12",
"year":"2017",
"landUse":"街巷用地",
"value":1
},
{
"code":"33",
"year":"2017",
"landUse":"机关团体用地",
"value":5
},
{
"code":"51",
"year":"2017",
"landUse":"机关团体用地",
"value":3
},
{
"code":"22",
"year":"2017",
"landUse":"公路用地",
"value":6
},
{
"code":"21",
"year":"2017",
"landUse":"其他普通商品住房用地",
"value":403
},
{
"code":"33",
"year":"2017",
"landUse":"公路用地",
"value":40
},
{
"code":"34",
"year":"2017",
"landUse":"宗教用地",
"value":1
},
{
"code":"41",
"year":"2017",
"landUse":"中低价位、中小套型普通商品住房用地",
"value":268
},
{
"code":"33",
"year":"2017",
"landUse":"经济适用住房用地",
"value":200
},
{
"code":"33",
"year":"2017",
"landUse":"机场用地",
"value":1
},
{
"code":"53",
"year":"2017",
"landUse":"仓储用地",
"value":65
},
{
"code":"61",
"year":"2017",
"landUse":"其他普通商品住房用地",
"value":651
},
{
"code":"11",
"year":"2017",
"landUse":"仓储用地",
"value":4
},
{
"code":"52",
"year":"2017",
"landUse":"商务金融用地",
"value":89
},
{
"code":"42",
"year":"2017",
"landUse":"中低价位、中小套型普通商品住房用地",
"value":1433
},
{
"code":"61",
"year":"2017",
"landUse":"公共租赁住房用地",
"value":7
},
{
"code":"35",
"year":"2017",
"landUse":"科教用地",
"value":11
},
{
"code":"37",
"year":"2017",
"landUse":"公共设施用地",
"value":143
},
{
"code":"63",
"year":"2017",
"landUse":"商务金融用地",
"value":13
},
{
"code":"14",
"year":"2017",
"landUse":"中低价位、中小套型普通商品住房用地",
"value":38
},
{
"code":"35",
"year":"2017",
"landUse":"铁路用地",
"value":1
},
{
"code":"45",
"year":"2017",
"landUse":"科教用地",
"value":14
},
{
"code":"37",
"year":"2017",
"landUse":"经济适用住房用地",
"value":87
},
{
"code":"62",
"year":"2017",
"landUse":"公共设施用地",
"value":4
},
{
"code":"13",
"year":"2017",
"landUse":"廉租住房用地",
"value":1
},
{
"code":"43",
"year":"2017",
"landUse":"港口码头用地",
"value":2
},
{
"code":"34",
"year":"2017",
"landUse":"经济适用住房用地",
"value":111
},
{
"code":"42",
"year":"2017",
"landUse":"军事设施用地",
"value":1
},
{
"code":"41",
"year":"2017",
"landUse":"公共租赁住房用地",
"value":23
},
{
"code":"14",
"year":"2017",
"landUse":"采矿用地",
"value":6
},
{
"code":"62",
"year":"2017",
"landUse":"住宿餐饮用地",
"value":38
},
{
"code":"34",
"year":"2017",
"landUse":"中低价位、中小套型普通商品住房用地",
"value":273
},
{
"code":"62",
"year":"2017",
"landUse":"水工建筑用地",
"value":1
},
{
"code":"42",
"year":"2017",
"landUse":"经济适用住房用地",
"value":23
},
{
"code":"35",
"year":"2017",
"landUse":"廉租住房用地",
"value":2
},
{
"code":"15",
"year":"2017",
"landUse":"批发零售用地",
"value":12
},
{
"code":"65",
"year":"2017",
"landUse":"科教用地",
"value":7
},
{
"code":"37",
"year":"2017",
"landUse":"高档住宅用地",
"value":3
},
{
"code":"61",
"year":"2017",
"landUse":"高档住宅用地",
"value":3
},
{
"code":"37",
"year":"2017",
"landUse":"街巷用地",
"value":4
},
{
"code":"45",
"year":"2017",
"landUse":"住宿餐饮用地",
"value":60
},
{
"code":"34",
"year":"2017",
"landUse":"交通运输用地",
"value":1
},
{
"code":"41",
"year":"2017",
"landUse":"风景名胜设施用地",
"value":1
},
{
"code":"21",
"year":"2017",
"landUse":"公共租赁住房用地",
"value":1
},
{
"code":"64",
"year":"2017",
"landUse":"中低价位、中小套型普通商品住房用地",
"value":8
},
{
"code":"43",
"year":"2017",
"landUse":"机关团体用地",
"value":5
},
{
"code":"45",
"year":"2017",
"landUse":"水工建筑用地",
"value":4
},
{
"code":"65",
"year":"2017",
"landUse":"经济适用住房用地",
"value":25
},
{
"code":"52",
"year":"2017",
"landUse":"经济适用住房用地",
"value":71
},
{
"code":"50",
"year":"2017",
"landUse":"科教用地",
"value":8
},
{
"code":"41",
"year":"2017",
"landUse":"铁路用地",
"value":10
},
{
"code":"43",
"year":"2017",
"landUse":"科教用地",
"value":12
},
{
"code":"41",
"year":"2017",
"landUse":"殡葬用地",
"value":1
},
{
"code":"37",
"year":"2017",
"landUse":"机关团体用地",
"value":6
},
{
"code":"44",
"year":"2017",
"landUse":"公路用地",
"value":2
},
{
"code":"37",
"year":"2017",
"landUse":"仓储用地",
"value":151
},
{
"code":"31",
"year":"2017",
"landUse":"商务金融用地",
"value":9
},
{
"code":"32",
"year":"2017",
"landUse":"公共设施用地",
"value":15
},
{
"code":"34",
"year":"2017",
"landUse":"文体娱乐用地",
"value":2
},
{
"code":"61",
"year":"2017",
"landUse":"公共设施用地",
"value":20
},
{
"code":"51",
"year":"2017",
"landUse":"公路用地",
"value":1
},
{
"code":"14",
"year":"2017",
"landUse":"商务金融用地",
"value":116
},
{
"code":"42",
"year":"2017",
"landUse":"殡葬用地",
"value":1
},
{
"code":"37",
"year":"2017",
"landUse":"廉租住房用地",
"value":3
},
{
"code":"51",
"year":"2017",
"landUse":"公共设施用地",
"value":33
},
{
"code":"45",
"year":"2017",
"landUse":"工业用地",
"value":529
},
{
"code":"51",
"year":"2017",
"landUse":"中低价位、中小套型普通商品住房用地",
"value":342
},
{
"code":"43",
"year":"2017",
"landUse":"工业用地",
"value":843
},
{
"code":"44",
"year":"2017",
"landUse":"廉租住房用地",
"value":1
},
{
"code":"37",
"year":"2017",
"landUse":"文体娱乐用地",
"value":9
},
{
"code":"41",
"year":"2017",
"landUse":"其他商服用地",
"value":339
},
{
"code":"15",
"year":"2017",
"landUse":"殡葬用地",
"value":1
},
{
"code":"21",
"year":"2017",
"landUse":"其他商服用地",
"value":586
},
{
"code":"45",
"year":"2017",
"landUse":"医卫慈善用地",
"value":8
},
{
"code":"45",
"year":"2017",
"landUse":"管道运输用地",
"value":3
},
{
"code":"45",
"year":"2017",
"landUse":"其他商服用地",
"value":99
},
{
"code":"44",
"year":"2017",
"landUse":"仓储用地",
"value":62
},
{
"code":"44",
"year":"2017",
"landUse":"公共租赁住房用地",
"value":6
},
{
"code":"13",
"year":"2017",
"landUse":"风景名胜设施用地",
"value":1
},
{
"code":"44",
"year":"2017",
"landUse":"宗教用地",
"value":4
},
{
"code":"44",
"year":"2017",
"landUse":"港口码头用地",
"value":1
},
{
"code":"43",
"year":"2017",
"landUse":"经济适用住房用地",
"value":99
},
{
"code":"13",
"year":"2017",
"landUse":"其他普通商品住房用地",
"value":1925
},
{
"code":"13",
"year":"2017",
"landUse":"公共租赁住房用地",
"value":2
},
{
"code":"41",
"year":"2017",
"landUse":"医卫慈善用地",
"value":7
},
{
"code":"61",
"year":"2017",
"landUse":"工业用地",
"value":405
},
{
"code":"42",
"year":"2017",
"landUse":"廉租住房用地",
"value":1
},
{
"code":"35",
"year":"2017",
"landUse":"港口码头用地",
"value":1
},
{
"code":"14",
"year":"2017",
"landUse":"批发零售用地",
"value":20
},
{
"code":"31",
"year":"2017",
"landUse":"住宿餐饮用地",
"value":4
},
{
"code":"14",
"year":"2017",
"landUse":"科教用地",
"value":2
},
{
"code":"44",
"year":"2017",
"landUse":"机关团体用地",
"value":6
},
{
"code":"42",
"year":"2017",
"landUse":"公共设施用地",
"value":19
},
{
"code":"50",
"year":"2017",
"landUse":"医卫慈善用地",
"value":2
},
{
"code":"33",
"year":"2017",
"landUse":"新闻出版用地",
"value":2
},
{
"code":"37",
"year":"2017",
"landUse":"公共租赁住房用地",
"value":6
},
{
"code":"12",
"year":"2017",
"landUse":"其他普通商品住房用地",
"value":202
},
{
"code":"37",
"year":"2017",
"landUse":"中低价位、中小套型普通商品住房用地",
"value":1065
},
{
"code":"50",
"year":"2017",
"landUse":"风景名胜设施用地",
"value":1
},
{
"code":"41",
"year":"2017",
"landUse":"机关团体用地",
"value":2
},
{
"code":"36",
"year":"2017",
"landUse":"高档住宅用地",
"value":8
},
{
"code":"21",
"year":"2017",
"landUse":"公共设施用地",
"value":6
},
{
"code":"50",
"year":"2017",
"landUse":"铁路用地",
"value":3
},
{
"code":"45",
"year":"2017",
"landUse":"文体娱乐用地",
"value":1
},
{
"code":"65",
"year":"2017",
"landUse":"机关团体用地",
"value":6
},
{
"code":"65",
"year":"2017",
"landUse":"高档住宅用地",
"value":2
},
{
"code":"14",
"year":"2017",
"landUse":"经济适用住房用地",
"value":21
},
{
"code":"32",
"year":"2017",
"landUse":"其他商服用地",
"value":706
},
{
"code":"41",
"year":"2017",
"landUse":"文体娱乐用地",
"value":4
},
{
"code":"63",
"year":"2017",
"landUse":"采矿用地",
"value":1
},
{
"code":"52",
"year":"2017",
"landUse":"科教用地",
"value":2
},
{
"code":"15",
"year":"2017",
"landUse":"中低价位、中小套型普通商品住房用地",
"value":207
},
{
"code":"42",
"year":"2017",
"landUse":"港口码头用地",
"value":1
},
{
"code":"21",
"year":"2017",
"landUse":"廉租住房用地",
"value":1
},
{
"code":"65",
"year":"2017",
"landUse":"住宿餐饮用地",
"value":36
},
{
"code":"37",
"year":"2017",
"landUse":"医卫慈善用地",
"value":25
},
{
"code":"65",
"year":"2017",
"landUse":"仓储用地",
"value":40
},
{
"code":"50",
"year":"2017",
"landUse":"公路用地",
"value":16
},
{
"code":"51",
"year":"2017",
"landUse":"公共租赁住房用地",
"value":21
},
{
"code":"61",
"year":"2017",
"landUse":"中低价位、中小套型普通商品住房用地",
"value":165
},
{
"code":"32",
"year":"2017",
"landUse":"文体娱乐用地",
"value":2
},
{
"code":"42",
"year":"2017",
"landUse":"商务金融用地",
"value":33
},
{
"code":"22",
"year":"2017",
"landUse":"公共租赁住房用地",
"value":2
},
{
"code":"44",
"year":"2017",
"landUse":"商务金融用地",
"value":74
},
{
"code":"34",
"year":"2017",
"landUse":"水工建筑用地",
"value":1
},
{
"code":"42",
"year":"2017",
"landUse":"风景名胜设施用地",
"value":7
},
{
"code":"51",
"year":"2017",
"landUse":"水工建筑用地",
"value":1
},
{
"code":"50",
"year":"2017",
"landUse":"其他普通商品住房用地",
"value":224
},
{
"code":"64",
"year":"2017",
"landUse":"仓储用地",
"value":29
},
{
"code":"53",
"year":"2017",
"landUse":"中低价位、中小套型普通商品住房用地",
"value":84
},
{
"code":"52",
"year":"2017",
"landUse":"医卫慈善用地",
"value":3
},
{
"code":"23",
"year":"2017",
"landUse":"住宿餐饮用地",
"value":27
},
{
"code":"21",
"year":"2017",
"landUse":"科教用地",
"value":2
},
{
"code":"13",
"year":"2017",
"landUse":"街巷用地",
"value":4
},
{
"code":"43",
"year":"2017",
"landUse":"其他普通商品住房用地",
"value":5220
},
{
"code":"64",
"year":"2017",
"landUse":"住宿餐饮用地",
"value":5
},
{
"code":"43",
"year":"2017",
"landUse":"商务金融用地",
"value":46
},
{
"code":"37",
"year":"2017",
"landUse":"批发零售用地",
"value":33
},
{
"code":"41",
"year":"2017",
"landUse":"科教用地",
"value":18
},
{
"code":"53",
"year":"2017",
"landUse":"其他普通商品住房用地",
"value":2534
},
{
"code":"12",
"year":"2017",
"landUse":"经济适用住房用地",
"value":1
},
{
"code":"42",
"year":"2017",
"landUse":"医卫慈善用地",
"value":5
},
{
"code":"62",
"year":"2017",
"landUse":"其他普通商品住房用地",
"value":298
},
{
"code":"32",
"year":"2017",
"landUse":"公园与绿地",
"value":1
},
{
"code":"52",
"year":"2017",
"landUse":"街巷用地",
"value":1
},
{
"code":"65",
"year":"2017",
"landUse":"批发零售用地",
"value":11
},
{
"code":"53",
"year":"2017",
"landUse":"管道运输用地",
"value":1
},
{
"code":"34",
"year":"2017",
"landUse":"仓储用地",
"value":95
},
{
"code":"35",
"year":"2017",
"landUse":"公共设施用地",
"value":17
},
{
"code":"46",
"year":"2017",
"landUse":"中低价位、中小套型普通商品住房用地",
"value":18
},
{
"code":"52",
"year":"2017",
"landUse":"公共设施用地",
"value":16
},
{
"code":"33",
"year":"2017",
"landUse":"街巷用地",
"value":59
},
{
"code":"13",
"year":"2017",
"landUse":"公园与绿地",
"value":1
},
{
"code":"45",
"year":"2017",
"landUse":"街巷用地",
"value":22
},
{
"code":"37",
"year":"2017",
"landUse":"其他普通商品住房用地",
"value":1369
},
{
"code":"53",
"year":"2017",
"landUse":"廉租住房用地",
"value":2
},
{
"code":"51",
"year":"2017",
"landUse":"商务金融用地",
"value":88
},
{
"code":"61",
"year":"2017",
"landUse":"批发零售用地",
"value":16
},
{
"code":"34",
"year":"2017",
"landUse":"廉租住房用地",
"value":1
},
{
"code":"41",
"year":"2017",
"landUse":"采矿用地",
"value":2
},
{
"code":"65",
"year":"2017",
"landUse":"其他普通商品住房用地",
"value":221
},
{
"code":"45",
"year":"2017",
"landUse":"廉租住房用地",
"value":6
},
{
"code":"51",
"year":"2017",
"landUse":"公园与绿地",
"value":8
},
{
"code":"34",
"year":"2017",
"landUse":"批发零售用地",
"value":16
},
{
"code":"33",
"year":"2017",
"landUse":"水库水面",
"value":1
},
{
"code":"51",
"year":"2017",
"landUse":"工业用地",
"value":815
},
{
"code":"36",
"year":"2017",
"landUse":"采矿用地",
"value":6
},
{
"code":"14",
"year":"2017",
"landUse":"仓储用地",
"value":40
},
{
"code":"63",
"year":"2017",
"landUse":"经济适用住房用地",
"value":6
},
{
"code":"11",
"year":"2017",
"landUse":"其他普通商品住房用地",
"value":66
},
{
"code":"13",
"year":"2017",
"landUse":"医卫慈善用地",
"value":8
},
{
"code":"52",
"year":"2017",
"landUse":"机关团体用地",
"value":1
},
{
"code":"23",
"year":"2017",
"landUse":"采矿用地",
"value":8
},
{
"code":"42",
"year":"2017",
"landUse":"高档住宅用地",
"value":1
},
{
"code":"21",
"year":"2017",
"landUse":"街巷用地",
"value":2
},
{
"code":"37",
"year":"2017",
"landUse":"商务金融用地",
"value":266
},
{
"code":"44",
"year":"2017",
"landUse":"街巷用地",
"value":1
},
{
"code":"36",
"year":"2017",
"landUse":"住宿餐饮用地",
"value":20
},
{
"code":"50",
"year":"2017",
"landUse":"住宅用地",
"value":1
},
{
"code":"36",
"year":"2017",
"landUse":"仓储用地",
"value":47
},
{
"code":"45",
"year":"2017",
"landUse":"公共设施用地",
"value":20
},
{
"code":"22",
"year":"2017",
"landUse":"采矿用地",
"value":8
},
{
"code":"36",
"year":"2017",
"landUse":"廉租住房用地",
"value":1
},
{
"code":"33",
"year":"2017",
"landUse":"风景名胜设施用地",
"value":5
},
{
"code":"34",
"year":"2017",
"landUse":"其他商服用地",
"value":394
},
{
"code":"32",
"year":"2017",
"landUse":"医卫慈善用地",
"value":14
},
{
"code":"44",
"year":"2017",
"landUse":"高档住宅用地",
"value":5
},
{
"code":"33",
"year":"2017",
"landUse":"住宿餐饮用地",
"value":213
},
{
"code":"50",
"year":"2017",
"landUse":"批发零售用地",
"value":7
},
{
"code":"42",
"year":"2017",
"landUse":"水工建筑用地",
"value":1
},
{
"code":"22",
"year":"2017",
"landUse":"批发零售用地",
"value":11
},
{
"code":"23",
"year":"2017",
"landUse":"批发零售用地",
"value":4
},
{
"code":"45",
"year":"2017",
"landUse":"宗教用地",
"value":1
},
{
"code":"41",
"year":"2017",
"landUse":"公路用地",
"value":1
},
{
"code":"33",
"year":"2017",
"landUse":"商务金融用地",
"value":119
},
{
"code":"53",
"year":"2017",
"landUse":"文体娱乐用地",
"value":3
},
{
"code":"35",
"year":"2017",
"landUse":"仓储用地",
"value":65
},
{
"code":"13",
"year":"2017",
"landUse":"文体娱乐用地",
"value":3
},
{
"code":"15",
"year":"2017",
"landUse":"商务金融用地",
"value":75
},
{
"code":"22",
"year":"2017",
"landUse":"公共设施用地",
"value":8
},
{
"code":"41",
"year":"2017",
"landUse":"其他普通商品住房用地",
"value":1481
},
{
"code":"31",
"year":"2017",
"landUse":"其他普通商品住房用地",
"value":52
},
{
"code":"13",
"year":"2017",
"landUse":"科教用地",
"value":9
},
{
"code":"51",
"year":"2017",
"landUse":"住宿餐饮用地",
"value":53
},
{
"code":"15",
"year":"2017",
"landUse":"其他普通商品住房用地",
"value":816
},
{
"code":"21",
"year":"2017",
"landUse":"采矿用地",
"value":8
},
{
"code":"45",
"year":"2017",
"landUse":"公园与绿地",
"value":33
},
{
"code":"50",
"year":"2017",
"landUse":"廉租住房用地",
"value":6
},
{
"code":"33",
"year":"2017",
"landUse":"港口码头用地",
"value":3
},
{
"code":"45",
"year":"2017",
"landUse":"批发零售用地",
"value":18
},
{
"code":"50",
"year":"2017",
"landUse":"工业用地",
"value":348
},
{
"code":"13",
"year":"2017",
"landUse":"工业用地",
"value":1832
},
{
"code":"65",
"year":"2017",
"landUse":"公共租赁住房用地",
"value":5
},
{
"code":"43",
"year":"2017",
"landUse":"公路用地",
"value":10
},
{
"code":"62",
"year":"2017",
"landUse":"其他商服用地",
"value":199
},
{
"code":"35",
"year":"2017",
"landUse":"风景名胜设施用地",
"value":1
},
{
"code":"52",
"year":"2017",
"landUse":"工业用地",
"value":355
},
{
"code":"61",
"year":"2017",
"landUse":"仓储用地",
"value":65
},
{
"code":"62",
"year":"2017",
"landUse":"经济适用住房用地",
"value":9
},
{
"code":"52",
"year":"2017",
"landUse":"仓储用地",
"value":41
},
{
"code":"33",
"year":"2017",
"landUse":"工业用地",
"value":3001
},
{
"code":"37",
"year":"2017",
"landUse":"采矿用地",
"value":72
},
{
"code":"36",
"year":"2017",
"landUse":"医卫慈善用地",
"value":3
},
{
"code":"44",
"year":"2017",
"landUse":"其他普通商品住房用地",
"value":5626
},
{
"code":"43",
"year":"2017",
"landUse":"铁路用地",
"value":1
},
{
"code":"41",
"year":"2017",
"landUse":"公共设施用地",
"value":15
},
{
"code":"51",
"year":"2017",
"landUse":"其他普通商品住房用地",
"value":1638
},
{
"code":"11",
"year":"2017",
"landUse":"工业用地",
"value":13
},
{
"code":"34",
"year":"2017",
"landUse":"商务金融用地",
"value":46
},
{
"code":"41",
"year":"2017",
"landUse":"工业用地",
"value":1151
},
{
"code":"41",
"year":"2017",
"landUse":"廉租住房用地",
"value":5
},
{
"code":"63",
"year":"2017",
"landUse":"其他商服用地",
"value":125
},
{
"code":"41",
"year":"2017",
"landUse":"批发零售用地",
"value":28
},
{
"code":"33",
"year":"2017",
"landUse":"公共租赁住房用地",
"value":2
},
{
"code":"43",
"year":"2017",
"landUse":"住宿餐饮用地",
"value":31
},
{
"code":"15",
"year":"2017",
"landUse":"公共设施用地",
"value":9
},
{
"code":"43",
"year":"2017",
"landUse":"其他商服用地",
"value":711
},
{
"code":"23",
"year":"2017",
"landUse":"公共设施用地",
"value":1
},
{
"code":"13",
"year":"2017",
"landUse":"商务金融用地",
"value":109
},
{
"code":"46",
"year":"2017",
"landUse":"商务金融用地",
"value":11
},
{
"code":"22",
"year":"2017",
"landUse":"住宿餐饮用地",
"value":22
},
{
"code":"43",
"year":"2017",
"landUse":"文体娱乐用地",
"value":5
},
{
"code":"21",
"year":"2017",
"landUse":"经济适用住房用地",
"value":3
},
{
"code":"21",
"year":"2017",
"landUse":"住宿餐饮用地",
"value":45
},
{
"code":"46",
"year":"2017",
"landUse":"仓储用地",
"value":4
},
{
"code":"37",
"year":"2017",
"landUse":"公路用地",
"value":4
},
{
"code":"52",
"year":"2017",
"landUse":"其他普通商品住房用地",
"value":419
},
{
"code":"15",
"year":"2017",
"landUse":"科教用地",
"value":4
},
{
"code":"53",
"year":"2017",
"landUse":"医卫慈善用地",
"value":9
},
{
"code":"63",
"year":"2017",
"landUse":"公共租赁住房用地",
"value":1
},
{
"code":"65",
"year":"2017",
"landUse":"采矿用地",
"value":1
},
{
"code":"32",
"year":"2017",
"landUse":"其他普通商品住房用地",
"value":772
},
{
"code":"43",
"year":"2017",
"landUse":"管道运输用地",
"value":1
},
{
"code":"34",
"year":"2017",
"landUse":"街巷用地",
"value":5
},
{
"code":"33",
"year":"2017",
"landUse":"高档住宅用地",
"value":3
},
{
"code":"44",
"year":"2017",
"landUse":"殡葬用地",
"value":1
},
{
"code":"22",
"year":"2017",
"landUse":"工业用地",
"value":463
},
{
"code":"51",
"year":"2017",
"landUse":"医卫慈善用地",
"value":9
},
{
"code":"62",
"year":"2017",
"landUse":"采矿用地",
"value":1
},
{
"code":"35",
"year":"2017",
"landUse":"公共租赁住房用地",
"value":5
},
{
"code":"53",
"year":"2017",
"landUse":"商务金融用地",
"value":85
},
{
"code":"33",
"year":"2017",
"landUse":"水工建筑用地",
"value":1
},
{
"code":"62",
"year":"2017",
"landUse":"中低价位、中小套型普通商品住房用地",
"value":75
},
{
"code":"46",
"year":"2017",
"landUse":"医卫慈善用地",
"value":2
},
{
"code":"36",
"year":"2017",
"landUse":"工业用地",
"value":1289
},
{
"code":"42",
"year":"2017",
"landUse":"交通运输用地",
"value":2
},
{
"code":"33",
"year":"2017",
"landUse":"宗教用地",
"value":1
},
{
"code":"62",
"year":"2017",
"landUse":"商务金融用地",
"value":50
},
{
"code":"35",
"year":"2017",
"landUse":"公园与绿地",
"value":6
},
{
"code":"50",
"year":"2017",
"landUse":"宗教用地",
"value":1
},
{
"code":"23",
"year":"2017",
"landUse":"工业用地",
"value":258
},
{
"code":"50",
"year":"2017",
"landUse":"机关团体用地",
"value":4
},
{
"code":"41",
"year":"2017",
"landUse":"住宿餐饮用地",
"value":38
},
{
"code":"14",
"year":"2017",
"landUse":"文体娱乐用地",
"value":1
},
{
"code":"23",
"year":"2017",
"landUse":"仓储用地",
"value":52
},
{
"code":"23",
"year":"2017",
"landUse":"中低价位、中小套型普通商品住房用地",
"value":50
},
{
"code":"45",
"year":"2017",
"landUse":"仓储用地",
"value":60
},
{
"code":"15",
"year":"2017",
"landUse":"采矿用地",
"value":10
},
{
"code":"13",
"year":"2017",
"landUse":"仓储用地",
"value":114
},
{
"code":"36",
"year":"2017",
"landUse":"经济适用住房用地",
"value":8
},
{
"code":"36",
"year":"2017",
"landUse":"商务金融用地",
"value":32
},
{
"code":"42",
"year":"2017",
"landUse":"其他普通商品住房用地",
"value":2108
},
{
"code":"51",
"year":"2017",
"landUse":"仓储用地",
"value":60
},
{
"code":"65",
"year":"2017",
"landUse":"商务金融用地",
"value":58
},
{
"code":"43",
"year":"2017",
"landUse":"廉租住房用地",
"value":1
},
{
"code":"44",
"year":"2017",
"landUse":"批发零售用地",
"value":13
},
{
"code":"21",
"year":"2017",
"landUse":"工业用地",
"value":541
},
{
"code":"43",
"year":"2017",
"landUse":"街巷用地",
"value":2
},
{
"code":"42",
"year":"2017",
"landUse":"文体娱乐用地",
"value":2
},
{
"code":"33",
"year":"2017",
"landUse":"公共设施用地",
"value":160
},
{
"code":"32",
"year":"2017",
"landUse":"港口码头用地",
"value":4
},
{
"code":"15",
"year":"2017",
"landUse":"医卫慈善用地",
"value":2
},
{
"code":"35",
"year":"2017",
"landUse":"公路用地",
"value":8
},
{
"code":"31",
"year":"2017",
"landUse":"仓储用地",
"value":1
},
{
"code":"43",
"year":"2017",
"landUse":"仓储用地",
"value":63
},
{
"code":"35",
"year":"2017",
"landUse":"其他普通商品住房用地",
"value":337
},
{
"code":"51",
"year":"2017",
"landUse":"廉租住房用地",
"value":5
},
{
"code":"65",
"year":"2017",
"landUse":"中低价位、中小套型普通商品住房用地",
"value":113
},
{
"code":"42",
"year":"2017",
"landUse":"工业用地",
"value":1562
},
{
"code":"23",
"year":"2017",
"landUse":"商务金融用地",
"value":31
},
{
"code":"52",
"year":"2017",
"landUse":"批发零售用地",
"value":10
},
{
"code":"32",
"year":"2017",
"landUse":"批发零售用地",
"value":31
},
{
"code":"34",
"year":"2017",
"landUse":"公共租赁住房用地",
"value":8
},
{
"code":"43",
"year":"2017",
"landUse":"公共设施用地",
"value":22
},
{
"code":"53",
"year":"2017",
"landUse":"公共租赁住房用地",
"value":10
},
{
"code":"63",
"year":"2017",
"landUse":"仓储用地",
"value":4
}
]
}